<?xml version="1.0" encoding="UTF-8" standalone="yes"?>
<gpx xmlns="http://www.topografix.com/GPX/1/1" xmlns:xsi="http://www.w3.org/2001/XMLSchema-instance" xmlns:gpxx="http://www.garmin.com/xmlschemas/GpxExtensions/v3" xsi:schemaLocation="http://www.topografix.com/GPX/1/1 http://www.topografix.com/GPX/1/1/gpx.xsd http://www.garmin.com/xmlschemas/GpxExtensions/v3 http://www8.garmin.com/xmlschemas/GpxExtensionsv3.xsd" version="1.1" creator="Beeline">
  <!-- The route waypoints -->
  <wpt lat="53.04583" lon="5.3821">
    <name>Langezand 8</name>
    <extensions>
      <gpxx:WaypointExtension>
        <gpxx:Address>
          <gpxx:StreetAddress>8 Langezand</gpxx:StreetAddress>
          <gpxx:City>Makkum</gpxx:City>
          <gpxx:State>Friesland</gpxx:State>
          <gpxx:Country>Nederland</gpxx:Country>
          <gpxx:PostalCode>8754 HR</gpxx:PostalCode>
        </gpxx:Address>
      </gpxx:WaypointExtension>
    </extensions>
  </wpt>
  <wpt lat="53.04583" lon="5.3821">
    <name>Langezand 8</name>
    <extensions>
      <gpxx:WaypointExtension>
        <gpxx:Address>
          <gpxx:StreetAddress>8 Langezand</gpxx:StreetAddress>
          <gpxx:City>Makkum</gpxx:City>
          <gpxx:State>Friesland</gpxx:State>
          <gpxx:Country>Nederland</gpxx:Country>
          <gpxx:PostalCode>8754 HR</gpxx:PostalCode>
        </gpxx:Address>
      </gpxx:WaypointExtension>
    </extensions>
  </wpt>
  <!-- The route -->
  <rte>
    <rtept lat="53.04583" lon="5.3821"/>
    <rtept lat="53.0459" lon="5.38244"/>
    <rtept lat="53.0459" lon="5.38244"/>
    <rtept lat="53.04598" lon="5.38241"/>
    <rtept lat="53.04606" lon="5.38242"/>
    <rtept lat="53.04616" lon="5.3824"/>
    <rtept lat="53.04628" lon="5.38238"/>
    <rtept lat="53.04639" lon="5.38232"/>
    <rtept lat="53.04639" lon="5.38232"/>
    <rtept lat="53.04652" lon="5.38278"/>
    <rtept lat="53.04658" lon="5.38298"/>
    <rtept lat="53.04677" lon="5.3837"/>
    <rtept lat="53.04677" lon="5.3837"/>
    <rtept lat="53.04725" lon="5.38547"/>
    <rtept lat="53.0473" lon="5.38563"/>
    <rtept lat="53.04744" lon="5.38614"/>
    <rtept lat="53.04745" lon="5.38616"/>
    <rtept lat="53.0475" lon="5.38637"/>
    <rtept lat="53.0475" lon="5.38637"/>
    <rtept lat="53.04755" lon="5.38657"/>
    <rtept lat="53.04763" lon="5.38684"/>
    <rtept lat="53.04777" lon="5.38739"/>
    <rtept lat="53.04783" lon="5.38762"/>
    <rtept lat="53.04789" lon="5.38784"/>
    <rtept lat="53.04789" lon="5.38786"/>
    <rtept lat="53.04808" lon="5.38851"/>
    <rtept lat="53.04808" lon="5.38854"/>
    <rtept lat="53.04809" lon="5.38858"/>
    <rtept lat="53.04815" lon="5.38879"/>
    <rtept lat="53.04822" lon="5.3889"/>
    <rtept lat="53.04827" lon="5.38896"/>
    <rtept lat="53.04836" lon="5.389"/>
    <rtept lat="53.04842" lon="5.38901"/>
    <rtept lat="53.04849" lon="5.38901"/>
    <rtept lat="53.04867" lon="5.38901"/>
    <rtept lat="53.04883" lon="5.38903"/>
    <rtept lat="53.04893" lon="5.38905"/>
    <rtept lat="53.04901" lon="5.3891"/>
    <rtept lat="53.04907" lon="5.38916"/>
    <rtept lat="53.04907" lon="5.38931"/>
    <rtept lat="53.04907" lon="5.38947"/>
    <rtept lat="53.04908" lon="5.38961"/>
    <rtept lat="53.04904" lon="5.38975"/>
    <rtept lat="53.04909" lon="5.38981"/>
    <rtept lat="53.04918" lon="5.3899"/>
    <rtept lat="53.04918" lon="5.3899"/>
    <rtept lat="53.04916" lon="5.38998"/>
    <rtept lat="53.04911" lon="5.39014"/>
    <rtept lat="53.04907" lon="5.39032"/>
    <rtept lat="53.04905" lon="5.39047"/>
    <rtept lat="53.04903" lon="5.39064"/>
    <rtept lat="53.04901" lon="5.39089"/>
    <rtept lat="53.04898" lon="5.39159"/>
    <rtept lat="53.04897" lon="5.39192"/>
    <rtept lat="53.04897" lon="5.39207"/>
    <rtept lat="53.04897" lon="5.39214"/>
    <rtept lat="53.04899" lon="5.39223"/>
    <rtept lat="53.04901" lon="5.39228"/>
    <rtept lat="53.04901" lon="5.39238"/>
    <rtept lat="53.049" lon="5.39264"/>
    <rtept lat="53.04899" lon="5.39274"/>
    <rtept lat="53.04898" lon="5.39291"/>
    <rtept lat="53.04896" lon="5.39309"/>
    <rtept lat="53.04896" lon="5.39351"/>
    <rtept lat="53.04896" lon="5.39362"/>
    <rtept lat="53.04897" lon="5.3937"/>
    <rtept lat="53.04898" lon="5.39379"/>
    <rtept lat="53.04899" lon="5.39384"/>
    <rtept lat="53.04898" lon="5.3939"/>
    <rtept lat="53.04898" lon="5.39394"/>
    <rtept lat="53.04896" lon="5.39401"/>
    <rtept lat="53.04895" lon="5.39409"/>
    <rtept lat="53.04895" lon="5.39476"/>
    <rtept lat="53.04896" lon="5.3954"/>
    <rtept lat="53.04895" lon="5.39582"/>
    <rtept lat="53.04892" lon="5.39653"/>
    <rtept lat="53.04891" lon="5.39683"/>
    <rtept lat="53.04889" lon="5.39848"/>
    <rtept lat="53.0489" lon="5.39891"/>
    <rtept lat="53.04892" lon="5.39948"/>
    <rtept lat="53.04897" lon="5.40004"/>
    <rtept lat="53.049" lon="5.40057"/>
    <rtept lat="53.04902" lon="5.40072"/>
    <rtept lat="53.04904" lon="5.40085"/>
    <rtept lat="53.04907" lon="5.40103"/>
    <rtept lat="53.04912" lon="5.40122"/>
    <rtept lat="53.04917" lon="5.40137"/>
    <rtept lat="53.04922" lon="5.40148"/>
    <rtept lat="53.04926" lon="5.40159"/>
    <rtept lat="53.04933" lon="5.40172"/>
    <rtept lat="53.04993" lon="5.40284"/>
    <rtept lat="53.05061" lon="5.40408"/>
    <rtept lat="53.05066" lon="5.40417"/>
    <rtept lat="53.05066" lon="5.40417"/>
    <rtept lat="53.05058" lon="5.4043"/>
    <rtept lat="53.05049" lon="5.40444"/>
    <rtept lat="53.05047" lon="5.40449"/>
    <rtept lat="53.05046" lon="5.40454"/>
    <rtept lat="53.05042" lon="5.40464"/>
    <rtept lat="53.0504" lon="5.40469"/>
    <rtept lat="53.05037" lon="5.40474"/>
    <rtept lat="53.05031" lon="5.40485"/>
    <rtept lat="53.05028" lon="5.4049"/>
    <rtept lat="53.05027" lon="5.40496"/>
    <rtept lat="53.05027" lon="5.40496"/>
    <rtept lat="53.05017" lon="5.40499"/>
    <rtept lat="53.04953" lon="5.40515"/>
    <rtept lat="53.04831" lon="5.40546"/>
    <rtept lat="53.04754" lon="5.4056"/>
    <rtept lat="53.0457" lon="5.40584"/>
    <rtept lat="53.04502" lon="5.4059"/>
    <rtept lat="53.04468" lon="5.40587"/>
    <rtept lat="53.04468" lon="5.40587"/>
    <rtept lat="53.04448" lon="5.40583"/>
    <rtept lat="53.04434" lon="5.4058"/>
    <rtept lat="53.04427" lon="5.40577"/>
    <rtept lat="53.04421" lon="5.40574"/>
    <rtept lat="53.04353" lon="5.40538"/>
    <rtept lat="53.0427" lon="5.40504"/>
    <rtept lat="53.04073" lon="5.40432"/>
    <rtept lat="53.04006" lon="5.40416"/>
    <rtept lat="53.03951" lon="5.40415"/>
    <rtept lat="53.03928" lon="5.40425"/>
    <rtept lat="53.03907" lon="5.40441"/>
    <rtept lat="53.03874" lon="5.40474"/>
    <rtept lat="53.03822" lon="5.40522"/>
    <rtept lat="53.03809" lon="5.40532"/>
    <rtept lat="53.03767" lon="5.40551"/>
    <rtept lat="53.03728" lon="5.40569"/>
    <rtept lat="53.03657" lon="5.40604"/>
    <rtept lat="53.0347" lon="5.40699"/>
    <rtept lat="53.03435" lon="5.40721"/>
    <rtept lat="53.03416" lon="5.40737"/>
    <rtept lat="53.03404" lon="5.40749"/>
    <rtept lat="53.03385" lon="5.40758"/>
    <rtept lat="53.03333" lon="5.40773"/>
    <rtept lat="53.03278" lon="5.40797"/>
    <rtept lat="53.03278" lon="5.40797"/>
    <rtept lat="53.03252" lon="5.40811"/>
    <rtept lat="53.03201" lon="5.40838"/>
    <rtept lat="53.03134" lon="5.40873"/>
    <rtept lat="53.03123" lon="5.40878"/>
    <rtept lat="53.03115" lon="5.40882"/>
    <rtept lat="53.03095" lon="5.4089"/>
    <rtept lat="53.03087" lon="5.40894"/>
    <rtept lat="53.03078" lon="5.40898"/>
    <rtept lat="53.0307" lon="5.40902"/>
    <rtept lat="53.03061" lon="5.40906"/>
    <rtept lat="53.03054" lon="5.4091"/>
    <rtept lat="53.03047" lon="5.40914"/>
    <rtept lat="53.03022" lon="5.4093"/>
    <rtept lat="53.02999" lon="5.40945"/>
    <rtept lat="53.02989" lon="5.4095"/>
    <rtept lat="53.02983" lon="5.40954"/>
    <rtept lat="53.02971" lon="5.4096"/>
    <rtept lat="53.0295" lon="5.4097"/>
    <rtept lat="53.02923" lon="5.40982"/>
    <rtept lat="53.02868" lon="5.41007"/>
    <rtept lat="53.02855" lon="5.41014"/>
    <rtept lat="53.0284" lon="5.41022"/>
    <rtept lat="53.02822" lon="5.41033"/>
    <rtept lat="53.02786" lon="5.41056"/>
    <rtept lat="53.02775" lon="5.41062"/>
    <rtept lat="53.02764" lon="5.41068"/>
    <rtept lat="53.02746" lon="5.41077"/>
    <rtept lat="53.02719" lon="5.4109"/>
    <rtept lat="53.02694" lon="5.41102"/>
    <rtept lat="53.02667" lon="5.41115"/>
    <rtept lat="53.0264" lon="5.41129"/>
    <rtept lat="53.02628" lon="5.41136"/>
    <rtept lat="53.02605" lon="5.41148"/>
    <rtept lat="53.02573" lon="5.41168"/>
    <rtept lat="53.02529" lon="5.41194"/>
    <rtept lat="53.02523" lon="5.41197"/>
    <rtept lat="53.02516" lon="5.412"/>
    <rtept lat="53.02507" lon="5.41203"/>
    <rtept lat="53.025" lon="5.41206"/>
    <rtept lat="53.02492" lon="5.41208"/>
    <rtept lat="53.02486" lon="5.41209"/>
    <rtept lat="53.02476" lon="5.4121"/>
    <rtept lat="53.02458" lon="5.41211"/>
    <rtept lat="53.02425" lon="5.41214"/>
    <rtept lat="53.02404" lon="5.41214"/>
    <rtept lat="53.02394" lon="5.41214"/>
    <rtept lat="53.02387" lon="5.41213"/>
    <rtept lat="53.02381" lon="5.41213"/>
    <rtept lat="53.02373" lon="5.41211"/>
    <rtept lat="53.02369" lon="5.4121"/>
    <rtept lat="53.02364" lon="5.41207"/>
    <rtept lat="53.02359" lon="5.41205"/>
    <rtept lat="53.02353" lon="5.41201"/>
    <rtept lat="53.02348" lon="5.41196"/>
    <rtept lat="53.02343" lon="5.41189"/>
    <rtept lat="53.02339" lon="5.41183"/>
    <rtept lat="53.02334" lon="5.41175"/>
    <rtept lat="53.02331" lon="5.41168"/>
    <rtept lat="53.02327" lon="5.41159"/>
    <rtept lat="53.02323" lon="5.41147"/>
    <rtept lat="53.02319" lon="5.41132"/>
    <rtept lat="53.02311" lon="5.41102"/>
    <rtept lat="53.02307" lon="5.41087"/>
    <rtept lat="53.02304" lon="5.41079"/>
    <rtept lat="53.023" lon="5.41071"/>
    <rtept lat="53.02296" lon="5.41063"/>
    <rtept lat="53.02291" lon="5.41055"/>
    <rtept lat="53.02283" lon="5.41046"/>
    <rtept lat="53.02277" lon="5.4104"/>
    <rtept lat="53.02269" lon="5.41033"/>
    <rtept lat="53.02257" lon="5.41024"/>
    <rtept lat="53.02246" lon="5.41017"/>
    <rtept lat="53.0223" lon="5.41006"/>
    <rtept lat="53.02213" lon="5.40997"/>
    <rtept lat="53.02184" lon="5.40982"/>
    <rtept lat="53.02163" lon="5.40971"/>
    <rtept lat="53.02152" lon="5.40965"/>
    <rtept lat="53.02129" lon="5.4095"/>
    <rtept lat="53.02115" lon="5.40942"/>
    <rtept lat="53.02105" lon="5.40937"/>
    <rtept lat="53.02095" lon="5.40932"/>
    <rtept lat="53.02086" lon="5.40929"/>
    <rtept lat="53.02077" lon="5.40925"/>
    <rtept lat="53.02065" lon="5.40922"/>
    <rtept lat="53.02039" lon="5.40914"/>
    <rtept lat="53.02016" lon="5.40907"/>
    <rtept lat="53.02" lon="5.40903"/>
    <rtept lat="53.01992" lon="5.409"/>
    <rtept lat="53.01974" lon="5.40897"/>
    <rtept lat="53.01945" lon="5.40893"/>
    <rtept lat="53.01928" lon="5.40891"/>
    <rtept lat="53.01906" lon="5.40889"/>
    <rtept lat="53.01889" lon="5.40888"/>
    <rtept lat="53.01864" lon="5.40887"/>
    <rtept lat="53.01841" lon="5.40885"/>
    <rtept lat="53.0179" lon="5.40879"/>
    <rtept lat="53.01767" lon="5.40876"/>
    <rtept lat="53.01742" lon="5.40871"/>
    <rtept lat="53.01719" lon="5.40858"/>
    <rtept lat="53.01699" lon="5.40837"/>
    <rtept lat="53.01681" lon="5.40821"/>
    <rtept lat="53.01681" lon="5.40821"/>
    <rtept lat="53.01669" lon="5.40838"/>
    <rtept lat="53.01657" lon="5.40842"/>
    <rtept lat="53.01651" lon="5.40847"/>
    <rtept lat="53.01646" lon="5.40859"/>
    <rtept lat="53.01646" lon="5.40859"/>
    <rtept lat="53.01637" lon="5.40859"/>
    <rtept lat="53.01625" lon="5.40853"/>
    <rtept lat="53.01612" lon="5.40841"/>
    <rtept lat="53.01601" lon="5.4083"/>
    <rtept lat="53.01593" lon="5.40827"/>
    <rtept lat="53.01584" lon="5.40825"/>
    <rtept lat="53.01573" lon="5.40836"/>
    <rtept lat="53.01548" lon="5.40882"/>
    <rtept lat="53.0154" lon="5.40903"/>
    <rtept lat="53.01537" lon="5.40908"/>
    <rtept lat="53.01531" lon="5.40926"/>
    <rtept lat="53.01532" lon="5.40956"/>
    <rtept lat="53.01531" lon="5.40966"/>
    <rtept lat="53.0153" lon="5.40973"/>
    <rtept lat="53.01519" lon="5.4101"/>
    <rtept lat="53.01518" lon="5.41016"/>
    <rtept lat="53.01519" lon="5.41021"/>
    <rtept lat="53.01519" lon="5.41021"/>
    <rtept lat="53.01494" lon="5.41057"/>
    <rtept lat="53.01473" lon="5.41087"/>
    <rtept lat="53.01467" lon="5.41098"/>
    <rtept lat="53.01433" lon="5.41159"/>
    <rtept lat="53.01421" lon="5.41182"/>
    <rtept lat="53.01402" lon="5.41227"/>
    <rtept lat="53.01351" lon="5.41349"/>
    <rtept lat="53.01346" lon="5.41362"/>
    <rtept lat="53.01341" lon="5.41379"/>
    <rtept lat="53.01334" lon="5.41394"/>
    <rtept lat="53.01306" lon="5.41355"/>
    <rtept lat="53.013" lon="5.41349"/>
    <rtept lat="53.01293" lon="5.41344"/>
    <rtept lat="53.01286" lon="5.41341"/>
    <rtept lat="53.01279" lon="5.41341"/>
    <rtept lat="53.01273" lon="5.41344"/>
    <rtept lat="53.01268" lon="5.41352"/>
    <rtept lat="53.01138" lon="5.41654"/>
    <rtept lat="53.01129" lon="5.4168"/>
    <rtept lat="53.01119" lon="5.41712"/>
    <rtept lat="53.01029" lon="5.41926"/>
    <rtept lat="53.01027" lon="5.41928"/>
    <rtept lat="53.01026" lon="5.41929"/>
    <rtept lat="53.0102" lon="5.41929"/>
    <rtept lat="53.01019" lon="5.41929"/>
    <rtept lat="53.01018" lon="5.41928"/>
    <rtept lat="53.01017" lon="5.41925"/>
    <rtept lat="53.01016" lon="5.41915"/>
    <rtept lat="53.01015" lon="5.41907"/>
    <rtept lat="53.01014" lon="5.41899"/>
    <rtept lat="53.01008" lon="5.4188"/>
    <rtept lat="53.01007" lon="5.41875"/>
    <rtept lat="53.01004" lon="5.41871"/>
    <rtept lat="53.01003" lon="5.41869"/>
    <rtept lat="53.01" lon="5.41867"/>
    <rtept lat="53.00997" lon="5.41866"/>
    <rtept lat="53.00995" lon="5.41867"/>
    <rtept lat="53.00992" lon="5.41868"/>
    <rtept lat="53.00978" lon="5.41878"/>
    <rtept lat="53.00975" lon="5.41881"/>
    <rtept lat="53.00972" lon="5.41887"/>
    <rtept lat="53.00953" lon="5.41923"/>
    <rtept lat="53.00948" lon="5.41932"/>
    <rtept lat="53.00945" lon="5.41936"/>
    <rtept lat="53.00942" lon="5.41941"/>
    <rtept lat="53.00935" lon="5.41955"/>
    <rtept lat="53.00909" lon="5.42017"/>
    <rtept lat="53.00906" lon="5.42025"/>
    <rtept lat="53.00902" lon="5.42031"/>
    <rtept lat="53.0087" lon="5.42083"/>
    <rtept lat="53.0083" lon="5.42148"/>
    <rtept lat="53.00828" lon="5.4215"/>
    <rtept lat="53.00826" lon="5.42152"/>
    <rtept lat="53.00824" lon="5.42153"/>
    <rtept lat="53.00821" lon="5.42153"/>
    <rtept lat="53.00813" lon="5.42152"/>
    <rtept lat="53.0081" lon="5.42152"/>
    <rtept lat="53.00807" lon="5.42154"/>
    <rtept lat="53.00805" lon="5.42155"/>
    <rtept lat="53.00804" lon="5.42157"/>
    <rtept lat="53.00796" lon="5.42172"/>
    <rtept lat="53.00794" lon="5.42175"/>
    <rtept lat="53.00791" lon="5.4218"/>
    <rtept lat="53.00789" lon="5.42183"/>
    <rtept lat="53.00785" lon="5.42187"/>
    <rtept lat="53.00783" lon="5.42189"/>
    <rtept lat="53.00781" lon="5.42193"/>
    <rtept lat="53.00775" lon="5.42205"/>
    <rtept lat="53.00773" lon="5.42207"/>
    <rtept lat="53.00771" lon="5.42209"/>
    <rtept lat="53.0077" lon="5.4221"/>
    <rtept lat="53.00767" lon="5.42211"/>
    <rtept lat="53.0076" lon="5.42211"/>
    <rtept lat="53.00758" lon="5.42211"/>
    <rtept lat="53.00757" lon="5.42211"/>
    <rtept lat="53.00755" lon="5.42213"/>
    <rtept lat="53.00754" lon="5.42214"/>
    <rtept lat="53.00753" lon="5.42217"/>
    <rtept lat="53.00729" lon="5.42268"/>
    <rtept lat="53.00722" lon="5.42285"/>
    <rtept lat="53.00707" lon="5.42313"/>
    <rtept lat="53.00658" lon="5.42396"/>
    <rtept lat="53.00653" lon="5.424"/>
    <rtept lat="53.00647" lon="5.42401"/>
    <rtept lat="53.00643" lon="5.42404"/>
    <rtept lat="53.00641" lon="5.42408"/>
    <rtept lat="53.00617" lon="5.42463"/>
    <rtept lat="53.00613" lon="5.42467"/>
    <rtept lat="53.00598" lon="5.42478"/>
    <rtept lat="53.00598" lon="5.42478"/>
    <rtept lat="53.00597" lon="5.4248"/>
    <rtept lat="53.00596" lon="5.42483"/>
    <rtept lat="53.00596" lon="5.42485"/>
    <rtept lat="53.00596" lon="5.42489"/>
    <rtept lat="53.00606" lon="5.4253"/>
    <rtept lat="53.00608" lon="5.42541"/>
    <rtept lat="53.00609" lon="5.42549"/>
    <rtept lat="53.00609" lon="5.42555"/>
    <rtept lat="53.00609" lon="5.42561"/>
    <rtept lat="53.00608" lon="5.42569"/>
    <rtept lat="53.00608" lon="5.42575"/>
    <rtept lat="53.00595" lon="5.42646"/>
    <rtept lat="53.00593" lon="5.42657"/>
    <rtept lat="53.00591" lon="5.42672"/>
    <rtept lat="53.00588" lon="5.42729"/>
    <rtept lat="53.00582" lon="5.42877"/>
    <rtept lat="53.00581" lon="5.42879"/>
    <rtept lat="53.00581" lon="5.42882"/>
    <rtept lat="53.00579" lon="5.42885"/>
    <rtept lat="53.00577" lon="5.42888"/>
    <rtept lat="53.00575" lon="5.4289"/>
    <rtept lat="53.00546" lon="5.42906"/>
    <rtept lat="53.00544" lon="5.42908"/>
    <rtept lat="53.00542" lon="5.42911"/>
    <rtept lat="53.00541" lon="5.42916"/>
    <rtept lat="53.00541" lon="5.42921"/>
    <rtept lat="53.00543" lon="5.42939"/>
    <rtept lat="53.00543" lon="5.4303"/>
    <rtept lat="53.00564" lon="5.4305"/>
    <rtept lat="53.0056" lon="5.43062"/>
    <rtept lat="53.00547" lon="5.43093"/>
    <rtept lat="53.00547" lon="5.43093"/>
    <rtept lat="53.00538" lon="5.43086"/>
    <rtept lat="53.00528" lon="5.4308"/>
    <rtept lat="53.00522" lon="5.43077"/>
    <rtept lat="53.00514" lon="5.43074"/>
    <rtept lat="53.00507" lon="5.43073"/>
    <rtept lat="53.00499" lon="5.43073"/>
    <rtept lat="53.00469" lon="5.43073"/>
    <rtept lat="53.00445" lon="5.43074"/>
    <rtept lat="53.00426" lon="5.43077"/>
    <rtept lat="53.00426" lon="5.43077"/>
    <rtept lat="53.00414" lon="5.43079"/>
    <rtept lat="53.004" lon="5.43085"/>
    <rtept lat="53.00363" lon="5.43106"/>
    <rtept lat="53.00347" lon="5.43116"/>
    <rtept lat="53.00328" lon="5.43126"/>
    <rtept lat="53.00308" lon="5.43135"/>
    <rtept lat="53.00271" lon="5.4315"/>
    <rtept lat="53.00254" lon="5.43156"/>
    <rtept lat="53.00234" lon="5.43161"/>
    <rtept lat="53.00217" lon="5.43162"/>
    <rtept lat="53.002" lon="5.4316"/>
    <rtept lat="53.00051" lon="5.43121"/>
    <rtept lat="53.00045" lon="5.43121"/>
    <rtept lat="53.00037" lon="5.43122"/>
    <rtept lat="53.00028" lon="5.43124"/>
    <rtept lat="53.00018" lon="5.43128"/>
    <rtept lat="53.00009" lon="5.43133"/>
    <rtept lat="52.99998" lon="5.43139"/>
    <rtept lat="52.99998" lon="5.43139"/>
    <rtept lat="52.99991" lon="5.43149"/>
    <rtept lat="52.99907" lon="5.43257"/>
    <rtept lat="52.99842" lon="5.43338"/>
    <rtept lat="52.9981" lon="5.43368"/>
    <rtept lat="52.99776" lon="5.43394"/>
    <rtept lat="52.99729" lon="5.4343"/>
    <rtept lat="52.99689" lon="5.43459"/>
    <rtept lat="52.99675" lon="5.43466"/>
    <rtept lat="52.99661" lon="5.43472"/>
    <rtept lat="52.9965" lon="5.43476"/>
    <rtept lat="52.99639" lon="5.43478"/>
    <rtept lat="52.99629" lon="5.43478"/>
    <rtept lat="52.99615" lon="5.43479"/>
    <rtept lat="52.99605" lon="5.4348"/>
    <rtept lat="52.99598" lon="5.43479"/>
    <rtept lat="52.99582" lon="5.43477"/>
    <rtept lat="52.99567" lon="5.43472"/>
    <rtept lat="52.99553" lon="5.43467"/>
    <rtept lat="52.99533" lon="5.43457"/>
    <rtept lat="52.99501" lon="5.43433"/>
    <rtept lat="52.99461" lon="5.43397"/>
    <rtept lat="52.99449" lon="5.43392"/>
    <rtept lat="52.99449" lon="5.43392"/>
    <rtept lat="52.99439" lon="5.43387"/>
    <rtept lat="52.99427" lon="5.43383"/>
    <rtept lat="52.99408" lon="5.43382"/>
    <rtept lat="52.99338" lon="5.43382"/>
    <rtept lat="52.99256" lon="5.43386"/>
    <rtept lat="52.99198" lon="5.43386"/>
    <rtept lat="52.99184" lon="5.43389"/>
    <rtept lat="52.99173" lon="5.43394"/>
    <rtept lat="52.99165" lon="5.434"/>
    <rtept lat="52.99158" lon="5.43407"/>
    <rtept lat="52.99153" lon="5.43413"/>
    <rtept lat="52.99147" lon="5.43421"/>
    <rtept lat="52.99144" lon="5.43426"/>
    <rtept lat="52.99141" lon="5.4343"/>
    <rtept lat="52.99069" lon="5.43578"/>
    <rtept lat="52.99069" lon="5.43578"/>
    <rtept lat="52.99032" lon="5.43655"/>
    <rtept lat="52.98976" lon="5.43768"/>
    <rtept lat="52.9895" lon="5.43824"/>
    <rtept lat="52.98936" lon="5.4385"/>
    <rtept lat="52.98925" lon="5.43872"/>
    <rtept lat="52.98908" lon="5.43901"/>
    <rtept lat="52.98898" lon="5.43918"/>
    <rtept lat="52.98893" lon="5.43927"/>
    <rtept lat="52.98889" lon="5.43933"/>
    <rtept lat="52.98846" lon="5.44027"/>
    <rtept lat="52.98805" lon="5.44125"/>
    <rtept lat="52.98748" lon="5.44238"/>
    <rtept lat="52.9874" lon="5.44254"/>
    <rtept lat="52.98732" lon="5.44269"/>
    <rtept lat="52.98724" lon="5.44279"/>
    <rtept lat="52.98717" lon="5.44288"/>
    <rtept lat="52.98704" lon="5.443"/>
    <rtept lat="52.98692" lon="5.44308"/>
    <rtept lat="52.9868" lon="5.44314"/>
    <rtept lat="52.98666" lon="5.44319"/>
    <rtept lat="52.98651" lon="5.44324"/>
    <rtept lat="52.98593" lon="5.44339"/>
    <rtept lat="52.98571" lon="5.44346"/>
    <rtept lat="52.98546" lon="5.44359"/>
    <rtept lat="52.98539" lon="5.44366"/>
    <rtept lat="52.98532" lon="5.44373"/>
    <rtept lat="52.98522" lon="5.44384"/>
    <rtept lat="52.98508" lon="5.44407"/>
    <rtept lat="52.98475" lon="5.44472"/>
    <rtept lat="52.98435" lon="5.44552"/>
    <rtept lat="52.98429" lon="5.44566"/>
    <rtept lat="52.98429" lon="5.44566"/>
    <rtept lat="52.98418" lon="5.44588"/>
    <rtept lat="52.98395" lon="5.44632"/>
    <rtept lat="52.9838" lon="5.44658"/>
    <rtept lat="52.98347" lon="5.44717"/>
    <rtept lat="52.98324" lon="5.44756"/>
    <rtept lat="52.98309" lon="5.44783"/>
    <rtept lat="52.98309" lon="5.44783"/>
    <rtept lat="52.98359" lon="5.44855"/>
    <rtept lat="52.98376" lon="5.44874"/>
    <rtept lat="52.98386" lon="5.44883"/>
    <rtept lat="52.98391" lon="5.44888"/>
    <rtept lat="52.98396" lon="5.44895"/>
    <rtept lat="52.98401" lon="5.449"/>
    <rtept lat="52.98415" lon="5.44916"/>
    <rtept lat="52.98419" lon="5.44922"/>
    <rtept lat="52.98425" lon="5.4493"/>
    <rtept lat="52.98425" lon="5.4493"/>
    <rtept lat="52.98438" lon="5.44947"/>
    <rtept lat="52.9844" lon="5.44951"/>
    <rtept lat="52.98453" lon="5.44972"/>
    <rtept lat="52.98462" lon="5.44993"/>
    <rtept lat="52.98475" lon="5.45032"/>
    <rtept lat="52.9848" lon="5.45066"/>
    <rtept lat="52.98482" lon="5.45091"/>
    <rtept lat="52.98482" lon="5.45118"/>
    <rtept lat="52.9848" lon="5.45142"/>
    <rtept lat="52.98477" lon="5.45164"/>
    <rtept lat="52.98469" lon="5.45194"/>
    <rtept lat="52.98459" lon="5.45222"/>
    <rtept lat="52.98449" lon="5.45246"/>
    <rtept lat="52.98433" lon="5.45284"/>
    <rtept lat="52.98422" lon="5.45315"/>
    <rtept lat="52.98414" lon="5.45341"/>
    <rtept lat="52.98405" lon="5.45379"/>
    <rtept lat="52.98401" lon="5.45395"/>
    <rtept lat="52.98392" lon="5.45426"/>
    <rtept lat="52.98392" lon="5.45426"/>
    <rtept lat="52.9839" lon="5.45432"/>
    <rtept lat="52.98383" lon="5.45451"/>
    <rtept lat="52.98369" lon="5.45482"/>
    <rtept lat="52.98335" lon="5.45554"/>
    <rtept lat="52.98308" lon="5.45614"/>
    <rtept lat="52.98281" lon="5.4567"/>
    <rtept lat="52.98273" lon="5.45686"/>
    <rtept lat="52.98262" lon="5.45706"/>
    <rtept lat="52.9824" lon="5.45742"/>
    <rtept lat="52.98233" lon="5.45754"/>
    <rtept lat="52.98226" lon="5.45765"/>
    <rtept lat="52.98215" lon="5.45786"/>
    <rtept lat="52.98206" lon="5.45807"/>
    <rtept lat="52.98209" lon="5.45815"/>
    <rtept lat="52.9821" lon="5.45818"/>
    <rtept lat="52.98211" lon="5.4582"/>
    <rtept lat="52.98211" lon="5.4582"/>
    <rtept lat="52.98211" lon="5.45823"/>
    <rtept lat="52.9821" lon="5.45826"/>
    <rtept lat="52.98203" lon="5.4585"/>
    <rtept lat="52.98198" lon="5.45868"/>
    <rtept lat="52.98192" lon="5.4589"/>
    <rtept lat="52.9819" lon="5.45904"/>
    <rtept lat="52.98187" lon="5.45917"/>
    <rtept lat="52.98184" lon="5.45945"/>
    <rtept lat="52.98181" lon="5.45964"/>
    <rtept lat="52.9818" lon="5.45972"/>
    <rtept lat="52.9818" lon="5.45978"/>
    <rtept lat="52.9818" lon="5.45983"/>
    <rtept lat="52.98181" lon="5.45993"/>
    <rtept lat="52.98183" lon="5.46002"/>
    <rtept lat="52.98186" lon="5.46021"/>
    <rtept lat="52.98186" lon="5.46029"/>
    <rtept lat="52.98185" lon="5.46035"/>
    <rtept lat="52.98183" lon="5.46042"/>
    <rtept lat="52.98179" lon="5.46053"/>
    <rtept lat="52.98177" lon="5.46058"/>
    <rtept lat="52.98175" lon="5.46063"/>
    <rtept lat="52.98175" lon="5.46063"/>
    <rtept lat="52.98156" lon="5.46103"/>
    <rtept lat="52.98148" lon="5.4612"/>
    <rtept lat="52.98145" lon="5.46125"/>
    <rtept lat="52.98142" lon="5.46128"/>
    <rtept lat="52.98139" lon="5.4613"/>
    <rtept lat="52.98115" lon="5.46139"/>
    <rtept lat="52.98111" lon="5.46141"/>
    <rtept lat="52.98107" lon="5.46144"/>
    <rtept lat="52.98097" lon="5.46153"/>
    <rtept lat="52.98089" lon="5.46163"/>
    <rtept lat="52.98084" lon="5.4617"/>
    <rtept lat="52.98078" lon="5.46178"/>
    <rtept lat="52.9807" lon="5.46191"/>
    <rtept lat="52.98064" lon="5.46202"/>
    <rtept lat="52.98059" lon="5.46212"/>
    <rtept lat="52.98054" lon="5.46222"/>
    <rtept lat="52.98047" lon="5.46238"/>
    <rtept lat="52.98046" lon="5.4624"/>
    <rtept lat="52.98045" lon="5.46242"/>
    <rtept lat="52.98042" lon="5.46242"/>
    <rtept lat="52.98041" lon="5.46242"/>
    <rtept lat="52.98039" lon="5.46242"/>
    <rtept lat="52.98037" lon="5.4624"/>
    <rtept lat="52.98033" lon="5.46236"/>
    <rtept lat="52.98033" lon="5.46236"/>
    <rtept lat="52.98019" lon="5.46271"/>
    <rtept lat="52.98014" lon="5.46285"/>
    <rtept lat="52.9801" lon="5.463"/>
    <rtept lat="52.98006" lon="5.46325"/>
    <rtept lat="52.98003" lon="5.46349"/>
    <rtept lat="52.98002" lon="5.46377"/>
    <rtept lat="52.98002" lon="5.464"/>
    <rtept lat="52.98004" lon="5.4642"/>
    <rtept lat="52.98005" lon="5.46425"/>
    <rtept lat="52.98007" lon="5.4644"/>
    <rtept lat="52.9801" lon="5.46459"/>
    <rtept lat="52.98015" lon="5.46477"/>
    <rtept lat="52.98019" lon="5.46493"/>
    <rtept lat="52.98022" lon="5.46501"/>
    <rtept lat="52.98025" lon="5.46507"/>
    <rtept lat="52.98031" lon="5.46519"/>
    <rtept lat="52.98042" lon="5.46539"/>
    <rtept lat="52.98057" lon="5.46561"/>
    <rtept lat="52.98099" lon="5.46623"/>
    <rtept lat="52.98108" lon="5.46638"/>
    <rtept lat="52.98124" lon="5.46674"/>
    <rtept lat="52.98142" lon="5.46724"/>
    <rtept lat="52.98149" lon="5.46739"/>
    <rtept lat="52.98157" lon="5.46755"/>
    <rtept lat="52.98166" lon="5.4677"/>
    <rtept lat="52.98182" lon="5.46793"/>
    <rtept lat="52.98222" lon="5.46835"/>
    <rtept lat="52.98257" lon="5.46871"/>
    <rtept lat="52.98273" lon="5.46885"/>
    <rtept lat="52.98287" lon="5.46897"/>
    <rtept lat="52.98301" lon="5.46906"/>
    <rtept lat="52.98378" lon="5.4695"/>
    <rtept lat="52.98378" lon="5.4695"/>
    <rtept lat="52.98377" lon="5.46955"/>
    <rtept lat="52.98371" lon="5.46993"/>
    <rtept lat="52.9837" lon="5.46997"/>
    <rtept lat="52.98367" lon="5.47017"/>
    <rtept lat="52.98358" lon="5.47072"/>
    <rtept lat="52.98356" lon="5.47088"/>
    <rtept lat="52.98348" lon="5.47146"/>
    <rtept lat="52.98344" lon="5.47165"/>
    <rtept lat="52.98344" lon="5.47165"/>
    <rtept lat="52.98335" lon="5.47215"/>
    <rtept lat="52.9833" lon="5.47242"/>
    <rtept lat="52.98313" lon="5.47319"/>
    <rtept lat="52.98297" lon="5.47398"/>
    <rtept lat="52.98285" lon="5.47453"/>
    <rtept lat="52.98272" lon="5.47517"/>
    <rtept lat="52.98259" lon="5.47575"/>
    <rtept lat="52.98226" lon="5.47732"/>
    <rtept lat="52.98183" lon="5.47932"/>
    <rtept lat="52.98154" lon="5.48071"/>
    <rtept lat="52.98119" lon="5.48232"/>
    <rtept lat="52.98116" lon="5.48248"/>
    <rtept lat="52.98113" lon="5.48259"/>
    <rtept lat="52.9811" lon="5.48268"/>
    <rtept lat="52.98107" lon="5.48277"/>
    <rtept lat="52.98103" lon="5.48284"/>
    <rtept lat="52.98098" lon="5.48292"/>
    <rtept lat="52.98094" lon="5.48298"/>
    <rtept lat="52.98088" lon="5.48306"/>
    <rtept lat="52.98081" lon="5.48314"/>
    <rtept lat="52.98075" lon="5.4832"/>
    <rtept lat="52.98069" lon="5.48326"/>
    <rtept lat="52.98066" lon="5.4833"/>
    <rtept lat="52.98063" lon="5.48334"/>
    <rtept lat="52.98056" lon="5.48344"/>
    <rtept lat="52.98051" lon="5.48354"/>
    <rtept lat="52.98047" lon="5.48363"/>
    <rtept lat="52.98042" lon="5.48374"/>
    <rtept lat="52.9804" lon="5.48381"/>
    <rtept lat="52.98034" lon="5.48399"/>
    <rtept lat="52.9803" lon="5.48418"/>
    <rtept lat="52.9801" lon="5.48497"/>
    <rtept lat="52.98007" lon="5.48511"/>
    <rtept lat="52.98007" lon="5.48511"/>
    <rtept lat="52.98014" lon="5.48515"/>
    <rtept lat="52.98036" lon="5.48528"/>
    <rtept lat="52.98036" lon="5.48528"/>
    <rtept lat="52.98035" lon="5.48533"/>
    <rtept lat="52.98029" lon="5.48559"/>
    <rtept lat="52.98028" lon="5.48568"/>
    <rtept lat="52.98027" lon="5.48583"/>
    <rtept lat="52.98024" lon="5.48626"/>
    <rtept lat="52.98022" lon="5.48635"/>
    <rtept lat="52.9802" lon="5.48646"/>
    <rtept lat="52.97967" lon="5.48868"/>
    <rtept lat="52.97921" lon="5.49067"/>
    <rtept lat="52.97864" lon="5.49314"/>
    <rtept lat="52.97841" lon="5.49415"/>
    <rtept lat="52.97838" lon="5.49428"/>
    <rtept lat="52.97832" lon="5.49434"/>
    <rtept lat="52.97824" lon="5.49436"/>
    <rtept lat="52.97805" lon="5.49441"/>
    <rtept lat="52.97793" lon="5.49445"/>
    <rtept lat="52.97769" lon="5.49458"/>
    <rtept lat="52.97767" lon="5.49461"/>
    <rtept lat="52.97766" lon="5.49465"/>
    <rtept lat="52.97765" lon="5.49471"/>
    <rtept lat="52.9776" lon="5.49524"/>
    <rtept lat="52.97759" lon="5.49535"/>
    <rtept lat="52.97759" lon="5.49535"/>
    <rtept lat="52.97768" lon="5.49538"/>
    <rtept lat="52.97772" lon="5.49544"/>
    <rtept lat="52.97772" lon="5.49552"/>
    <rtept lat="52.97771" lon="5.49558"/>
    <rtept lat="52.97767" lon="5.49566"/>
    <rtept lat="52.97686" lon="5.49659"/>
    <rtept lat="52.97685" lon="5.49672"/>
    <rtept lat="52.97685" lon="5.49672"/>
    <rtept lat="52.97675" lon="5.4972"/>
    <rtept lat="52.97675" lon="5.4972"/>
    <rtept lat="52.97679" lon="5.4973"/>
    <rtept lat="52.9772" lon="5.49757"/>
    <rtept lat="52.97724" lon="5.49764"/>
    <rtept lat="52.97723" lon="5.49774"/>
    <rtept lat="52.97708" lon="5.49841"/>
    <rtept lat="52.97519" lon="5.5067"/>
    <rtept lat="52.97435" lon="5.51041"/>
    <rtept lat="52.97429" lon="5.5109"/>
    <rtept lat="52.97424" lon="5.51206"/>
    <rtept lat="52.9742" lon="5.51243"/>
    <rtept lat="52.97412" lon="5.51287"/>
    <rtept lat="52.9735" lon="5.51569"/>
    <rtept lat="52.97302" lon="5.51801"/>
    <rtept lat="52.97279" lon="5.51908"/>
    <rtept lat="52.97274" lon="5.51936"/>
    <rtept lat="52.97211" lon="5.52228"/>
    <rtept lat="52.97204" lon="5.52284"/>
    <rtept lat="52.97205" lon="5.52337"/>
    <rtept lat="52.97218" lon="5.52502"/>
    <rtept lat="52.97216" lon="5.52563"/>
    <rtept lat="52.97207" lon="5.5262"/>
    <rtept lat="52.97093" lon="5.53136"/>
    <rtept lat="52.97023" lon="5.53449"/>
    <rtept lat="52.97017" lon="5.53505"/>
    <rtept lat="52.97009" lon="5.53631"/>
    <rtept lat="52.97009" lon="5.53631"/>
    <rtept lat="52.97004" lon="5.53675"/>
    <rtept lat="52.96989" lon="5.5374"/>
    <rtept lat="52.96972" lon="5.53806"/>
    <rtept lat="52.96953" lon="5.53879"/>
    <rtept lat="52.96944" lon="5.53917"/>
    <rtept lat="52.96938" lon="5.53943"/>
    <rtept lat="52.96941" lon="5.53957"/>
    <rtept lat="52.96941" lon="5.53957"/>
    <rtept lat="52.96932" lon="5.53951"/>
    <rtept lat="52.96929" lon="5.53951"/>
    <rtept lat="52.96926" lon="5.53953"/>
    <rtept lat="52.96921" lon="5.5396"/>
    <rtept lat="52.9691" lon="5.53978"/>
    <rtept lat="52.96905" lon="5.53989"/>
    <rtept lat="52.96896" lon="5.54029"/>
    <rtept lat="52.96885" lon="5.54092"/>
    <rtept lat="52.96873" lon="5.54144"/>
    <rtept lat="52.96861" lon="5.54197"/>
    <rtept lat="52.96837" lon="5.54281"/>
    <rtept lat="52.96833" lon="5.54299"/>
    <rtept lat="52.96818" lon="5.54356"/>
    <rtept lat="52.9679" lon="5.54477"/>
    <rtept lat="52.96768" lon="5.54568"/>
    <rtept lat="52.96762" lon="5.54572"/>
    <rtept lat="52.96758" lon="5.54576"/>
    <rtept lat="52.96743" lon="5.54583"/>
    <rtept lat="52.96739" lon="5.54588"/>
    <rtept lat="52.96739" lon="5.54588"/>
    <rtept lat="52.96694" lon="5.54582"/>
    <rtept lat="52.96662" lon="5.54568"/>
    <rtept lat="52.96649" lon="5.54563"/>
    <rtept lat="52.96628" lon="5.5455"/>
    <rtept lat="52.96594" lon="5.54525"/>
    <rtept lat="52.96571" lon="5.54501"/>
    <rtept lat="52.96545" lon="5.54464"/>
    <rtept lat="52.96536" lon="5.54452"/>
    <rtept lat="52.96513" lon="5.5443"/>
    <rtept lat="52.96473" lon="5.544"/>
    <rtept lat="52.96439" lon="5.54369"/>
    <rtept lat="52.96418" lon="5.5435"/>
    <rtept lat="52.9639" lon="5.54324"/>
    <rtept lat="52.96365" lon="5.543"/>
    <rtept lat="52.96365" lon="5.543"/>
    <rtept lat="52.96339" lon="5.54331"/>
    <rtept lat="52.96314" lon="5.54379"/>
    <rtept lat="52.96311" lon="5.54397"/>
    <rtept lat="52.96311" lon="5.54397"/>
    <rtept lat="52.96314" lon="5.54379"/>
    <rtept lat="52.96339" lon="5.54331"/>
    <rtept lat="52.96365" lon="5.543"/>
    <rtept lat="52.96365" lon="5.543"/>
    <rtept lat="52.96362" lon="5.54296"/>
    <rtept lat="52.96341" lon="5.54264"/>
    <rtept lat="52.96315" lon="5.54223"/>
    <rtept lat="52.96308" lon="5.54218"/>
    <rtept lat="52.96303" lon="5.54216"/>
    <rtept lat="52.96268" lon="5.54183"/>
    <rtept lat="52.96264" lon="5.5418"/>
    <rtept lat="52.96261" lon="5.54179"/>
    <rtept lat="52.96249" lon="5.54179"/>
    <rtept lat="52.96249" lon="5.54179"/>
    <rtept lat="52.96243" lon="5.5418"/>
    <rtept lat="52.9624" lon="5.5418"/>
    <rtept lat="52.96151" lon="5.54095"/>
    <rtept lat="52.96147" lon="5.54091"/>
    <rtept lat="52.96147" lon="5.54091"/>
    <rtept lat="52.96126" lon="5.54072"/>
    <rtept lat="52.96045" lon="5.54011"/>
    <rtept lat="52.96039" lon="5.54005"/>
    <rtept lat="52.96039" lon="5.54005"/>
    <rtept lat="52.96037" lon="5.54002"/>
    <rtept lat="52.96036" lon="5.54"/>
    <rtept lat="52.96038" lon="5.53952"/>
    <rtept lat="52.96038" lon="5.53945"/>
    <rtept lat="52.96036" lon="5.5394"/>
    <rtept lat="52.95973" lon="5.53828"/>
    <rtept lat="52.95966" lon="5.5382"/>
    <rtept lat="52.95962" lon="5.53815"/>
    <rtept lat="52.95957" lon="5.5381"/>
    <rtept lat="52.9591" lon="5.53762"/>
    <rtept lat="52.95903" lon="5.53758"/>
    <rtept lat="52.95899" lon="5.53757"/>
    <rtept lat="52.95888" lon="5.53746"/>
    <rtept lat="52.95883" lon="5.53741"/>
    <rtept lat="52.95879" lon="5.53738"/>
    <rtept lat="52.95875" lon="5.53736"/>
    <rtept lat="52.95875" lon="5.53736"/>
    <rtept lat="52.95871" lon="5.53735"/>
    <rtept lat="52.95847" lon="5.53685"/>
    <rtept lat="52.95842" lon="5.53682"/>
    <rtept lat="52.95842" lon="5.53682"/>
    <rtept lat="52.95838" lon="5.53681"/>
    <rtept lat="52.95827" lon="5.53682"/>
    <rtept lat="52.95821" lon="5.53679"/>
    <rtept lat="52.95798" lon="5.5365"/>
    <rtept lat="52.95794" lon="5.53645"/>
    <rtept lat="52.95788" lon="5.53642"/>
    <rtept lat="52.95784" lon="5.5364"/>
    <rtept lat="52.95752" lon="5.53622"/>
    <rtept lat="52.95698" lon="5.53578"/>
    <rtept lat="52.95693" lon="5.53573"/>
    <rtept lat="52.95688" lon="5.53569"/>
    <rtept lat="52.95683" lon="5.53565"/>
    <rtept lat="52.95683" lon="5.53565"/>
    <rtept lat="52.95732" lon="5.53421"/>
    <rtept lat="52.9575" lon="5.53366"/>
    <rtept lat="52.95754" lon="5.53354"/>
    <rtept lat="52.95756" lon="5.53343"/>
    <rtept lat="52.95757" lon="5.53334"/>
    <rtept lat="52.95757" lon="5.53322"/>
    <rtept lat="52.95757" lon="5.53311"/>
    <rtept lat="52.95755" lon="5.533"/>
    <rtept lat="52.95752" lon="5.53287"/>
    <rtept lat="52.95749" lon="5.53278"/>
    <rtept lat="52.95744" lon="5.53269"/>
    <rtept lat="52.95738" lon="5.53262"/>
    <rtept lat="52.95722" lon="5.53247"/>
    <rtept lat="52.95676" lon="5.53206"/>
    <rtept lat="52.95593" lon="5.53134"/>
    <rtept lat="52.95586" lon="5.53126"/>
    <rtept lat="52.9553" lon="5.53065"/>
    <rtept lat="52.95523" lon="5.53059"/>
    <rtept lat="52.95517" lon="5.53055"/>
    <rtept lat="52.95512" lon="5.53053"/>
    <rtept lat="52.95506" lon="5.53052"/>
    <rtept lat="52.95499" lon="5.53052"/>
    <rtept lat="52.95491" lon="5.53053"/>
    <rtept lat="52.95455" lon="5.53067"/>
    <rtept lat="52.95445" lon="5.5307"/>
    <rtept lat="52.95439" lon="5.53071"/>
    <rtept lat="52.95433" lon="5.5307"/>
    <rtept lat="52.95428" lon="5.53069"/>
    <rtept lat="52.95422" lon="5.53065"/>
    <rtept lat="52.95416" lon="5.53061"/>
    <rtept lat="52.95401" lon="5.53046"/>
    <rtept lat="52.95344" lon="5.52982"/>
    <rtept lat="52.9532" lon="5.52955"/>
    <rtept lat="52.9529" lon="5.52919"/>
    <rtept lat="52.95285" lon="5.5291"/>
    <rtept lat="52.9528" lon="5.529"/>
    <rtept lat="52.95271" lon="5.52877"/>
    <rtept lat="52.9526" lon="5.52848"/>
    <rtept lat="52.95256" lon="5.52834"/>
    <rtept lat="52.95252" lon="5.52823"/>
    <rtept lat="52.95248" lon="5.52809"/>
    <rtept lat="52.95246" lon="5.52795"/>
    <rtept lat="52.95225" lon="5.52701"/>
    <rtept lat="52.95222" lon="5.52691"/>
    <rtept lat="52.95218" lon="5.52677"/>
    <rtept lat="52.95212" lon="5.52662"/>
    <rtept lat="52.95206" lon="5.5265"/>
    <rtept lat="52.95183" lon="5.52614"/>
    <rtept lat="52.95159" lon="5.52578"/>
    <rtept lat="52.95051" lon="5.5241"/>
    <rtept lat="52.94992" lon="5.52319"/>
    <rtept lat="52.94939" lon="5.52236"/>
    <rtept lat="52.94878" lon="5.52141"/>
    <rtept lat="52.94838" lon="5.5208"/>
    <rtept lat="52.94828" lon="5.52065"/>
    <rtept lat="52.94798" lon="5.52018"/>
    <rtept lat="52.94772" lon="5.51977"/>
    <rtept lat="52.94766" lon="5.51968"/>
    <rtept lat="52.94761" lon="5.51958"/>
    <rtept lat="52.94756" lon="5.51947"/>
    <rtept lat="52.94752" lon="5.51935"/>
    <rtept lat="52.94749" lon="5.51923"/>
    <rtept lat="52.94747" lon="5.51908"/>
    <rtept lat="52.94744" lon="5.51872"/>
    <rtept lat="52.94742" lon="5.51847"/>
    <rtept lat="52.94741" lon="5.5183"/>
    <rtept lat="52.94738" lon="5.51817"/>
    <rtept lat="52.94735" lon="5.51804"/>
    <rtept lat="52.9473" lon="5.51789"/>
    <rtept lat="52.94724" lon="5.51776"/>
    <rtept lat="52.94677" lon="5.51689"/>
    <rtept lat="52.9466" lon="5.51658"/>
    <rtept lat="52.94652" lon="5.51641"/>
    <rtept lat="52.94648" lon="5.51629"/>
    <rtept lat="52.94643" lon="5.51615"/>
    <rtept lat="52.94631" lon="5.5156"/>
    <rtept lat="52.94628" lon="5.51546"/>
    <rtept lat="52.94626" lon="5.51534"/>
    <rtept lat="52.94624" lon="5.5152"/>
    <rtept lat="52.94623" lon="5.51505"/>
    <rtept lat="52.94623" lon="5.51491"/>
    <rtept lat="52.94625" lon="5.51475"/>
    <rtept lat="52.94628" lon="5.5146"/>
    <rtept lat="52.94632" lon="5.51445"/>
    <rtept lat="52.94639" lon="5.51428"/>
    <rtept lat="52.94648" lon="5.51409"/>
    <rtept lat="52.94673" lon="5.51359"/>
    <rtept lat="52.94742" lon="5.5122"/>
    <rtept lat="52.94765" lon="5.51174"/>
    <rtept lat="52.94775" lon="5.51154"/>
    <rtept lat="52.9478" lon="5.51142"/>
    <rtept lat="52.94784" lon="5.5113"/>
    <rtept lat="52.94812" lon="5.51021"/>
    <rtept lat="52.94816" lon="5.51004"/>
    <rtept lat="52.94821" lon="5.5099"/>
    <rtept lat="52.94826" lon="5.50978"/>
    <rtept lat="52.9483" lon="5.50969"/>
    <rtept lat="52.94835" lon="5.50961"/>
    <rtept lat="52.94845" lon="5.50943"/>
    <rtept lat="52.94863" lon="5.50913"/>
    <rtept lat="52.94933" lon="5.50793"/>
    <rtept lat="52.94942" lon="5.5078"/>
    <rtept lat="52.94952" lon="5.50767"/>
    <rtept lat="52.94969" lon="5.50746"/>
    <rtept lat="52.94977" lon="5.50735"/>
    <rtept lat="52.94985" lon="5.50721"/>
    <rtept lat="52.94999" lon="5.50696"/>
    <rtept lat="52.9502" lon="5.50658"/>
    <rtept lat="52.95052" lon="5.506"/>
    <rtept lat="52.9508" lon="5.50549"/>
    <rtept lat="52.95094" lon="5.50527"/>
    <rtept lat="52.95107" lon="5.50511"/>
    <rtept lat="52.95116" lon="5.50494"/>
    <rtept lat="52.95137" lon="5.50461"/>
    <rtept lat="52.95162" lon="5.50423"/>
    <rtept lat="52.95171" lon="5.50408"/>
    <rtept lat="52.95178" lon="5.50393"/>
    <rtept lat="52.95183" lon="5.50379"/>
    <rtept lat="52.95187" lon="5.50365"/>
    <rtept lat="52.95191" lon="5.50346"/>
    <rtept lat="52.95193" lon="5.50325"/>
    <rtept lat="52.95197" lon="5.50288"/>
    <rtept lat="52.95201" lon="5.50269"/>
    <rtept lat="52.95207" lon="5.50251"/>
    <rtept lat="52.95222" lon="5.50217"/>
    <rtept lat="52.95222" lon="5.50217"/>
    <rtept lat="52.95233" lon="5.5023"/>
    <rtept lat="52.95246" lon="5.50244"/>
    <rtept lat="52.95257" lon="5.50249"/>
    <rtept lat="52.95268" lon="5.50249"/>
    <rtept lat="52.95273" lon="5.50244"/>
    <rtept lat="52.95278" lon="5.50236"/>
    <rtept lat="52.95292" lon="5.50209"/>
    <rtept lat="52.95292" lon="5.50209"/>
    <rtept lat="52.95392" lon="5.50025"/>
    <rtept lat="52.95413" lon="5.49982"/>
    <rtept lat="52.95436" lon="5.49929"/>
    <rtept lat="52.95471" lon="5.49863"/>
    <rtept lat="52.95497" lon="5.4981"/>
    <rtept lat="52.9551" lon="5.49767"/>
    <rtept lat="52.9552" lon="5.49725"/>
    <rtept lat="52.95567" lon="5.49657"/>
    <rtept lat="52.95592" lon="5.49627"/>
    <rtept lat="52.95611" lon="5.49611"/>
    <rtept lat="52.95631" lon="5.49589"/>
    <rtept lat="52.95703" lon="5.49478"/>
    <rtept lat="52.95744" lon="5.49442"/>
    <rtept lat="52.95756" lon="5.49428"/>
    <rtept lat="52.95765" lon="5.4942"/>
    <rtept lat="52.9579" lon="5.49395"/>
    <rtept lat="52.95819" lon="5.49359"/>
    <rtept lat="52.9585" lon="5.49313"/>
    <rtept lat="52.959" lon="5.49234"/>
    <rtept lat="52.9592" lon="5.49202"/>
    <rtept lat="52.95936" lon="5.49185"/>
    <rtept lat="52.95973" lon="5.49152"/>
    <rtept lat="52.95996" lon="5.49129"/>
    <rtept lat="52.96016" lon="5.49104"/>
    <rtept lat="52.96061" lon="5.49038"/>
    <rtept lat="52.96106" lon="5.48973"/>
    <rtept lat="52.9613" lon="5.48944"/>
    <rtept lat="52.96155" lon="5.48925"/>
    <rtept lat="52.96177" lon="5.48898"/>
    <rtept lat="52.96272" lon="5.48776"/>
    <rtept lat="52.96285" lon="5.4875"/>
    <rtept lat="52.96288" lon="5.48744"/>
    <rtept lat="52.96289" lon="5.48733"/>
    <rtept lat="52.96289" lon="5.48733"/>
    <rtept lat="52.96291" lon="5.48726"/>
    <rtept lat="52.96309" lon="5.48699"/>
    <rtept lat="52.96398" lon="5.48588"/>
    <rtept lat="52.96433" lon="5.48534"/>
    <rtept lat="52.9651" lon="5.48396"/>
    <rtept lat="52.96528" lon="5.48366"/>
    <rtept lat="52.96549" lon="5.48339"/>
    <rtept lat="52.96726" lon="5.48129"/>
    <rtept lat="52.96742" lon="5.48104"/>
    <rtept lat="52.96754" lon="5.48082"/>
    <rtept lat="52.96771" lon="5.48047"/>
    <rtept lat="52.96793" lon="5.47993"/>
    <rtept lat="52.96809" lon="5.47949"/>
    <rtept lat="52.96821" lon="5.47913"/>
    <rtept lat="52.96822" lon="5.47911"/>
    <rtept lat="52.96854" lon="5.47816"/>
    <rtept lat="52.96879" lon="5.47743"/>
    <rtept lat="52.96903" lon="5.47669"/>
    <rtept lat="52.96908" lon="5.47647"/>
    <rtept lat="52.96914" lon="5.4762"/>
    <rtept lat="52.96926" lon="5.4754"/>
    <rtept lat="52.96932" lon="5.47512"/>
    <rtept lat="52.96938" lon="5.47484"/>
    <rtept lat="52.97086" lon="5.46947"/>
    <rtept lat="52.9713" lon="5.46786"/>
    <rtept lat="52.97172" lon="5.46636"/>
    <rtept lat="52.97199" lon="5.46552"/>
    <rtept lat="52.97215" lon="5.46505"/>
    <rtept lat="52.97222" lon="5.46489"/>
    <rtept lat="52.97233" lon="5.46471"/>
    <rtept lat="52.97246" lon="5.46455"/>
    <rtept lat="52.97333" lon="5.46369"/>
    <rtept lat="52.97346" lon="5.46357"/>
    <rtept lat="52.97356" lon="5.4635"/>
    <rtept lat="52.97365" lon="5.46345"/>
    <rtept lat="52.9737" lon="5.46343"/>
    <rtept lat="52.97376" lon="5.46341"/>
    <rtept lat="52.97388" lon="5.4634"/>
    <rtept lat="52.97397" lon="5.46339"/>
    <rtept lat="52.97406" lon="5.46336"/>
    <rtept lat="52.97417" lon="5.46329"/>
    <rtept lat="52.97429" lon="5.46321"/>
    <rtept lat="52.97438" lon="5.46313"/>
    <rtept lat="52.97445" lon="5.46305"/>
    <rtept lat="52.97464" lon="5.46277"/>
    <rtept lat="52.97535" lon="5.46149"/>
    <rtept lat="52.97545" lon="5.46132"/>
    <rtept lat="52.97555" lon="5.46114"/>
    <rtept lat="52.97565" lon="5.46094"/>
    <rtept lat="52.97568" lon="5.46087"/>
    <rtept lat="52.97568" lon="5.46087"/>
    <rtept lat="52.9756" lon="5.46076"/>
    <rtept lat="52.97454" lon="5.45939"/>
    <rtept lat="52.97343" lon="5.45792"/>
    <rtept lat="52.97294" lon="5.4573"/>
    <rtept lat="52.97253" lon="5.4567"/>
    <rtept lat="52.97249" lon="5.45666"/>
    <rtept lat="52.97224" lon="5.45632"/>
    <rtept lat="52.97221" lon="5.45628"/>
    <rtept lat="52.9722" lon="5.45625"/>
    <rtept lat="52.97219" lon="5.45624"/>
    <rtept lat="52.97219" lon="5.4562"/>
    <rtept lat="52.97218" lon="5.45615"/>
    <rtept lat="52.97218" lon="5.45611"/>
    <rtept lat="52.97218" lon="5.45606"/>
    <rtept lat="52.97219" lon="5.45603"/>
    <rtept lat="52.97225" lon="5.45588"/>
    <rtept lat="52.97231" lon="5.45576"/>
    <rtept lat="52.97257" lon="5.45529"/>
    <rtept lat="52.97272" lon="5.45503"/>
    <rtept lat="52.97276" lon="5.45494"/>
    <rtept lat="52.97287" lon="5.45475"/>
    <rtept lat="52.97312" lon="5.45444"/>
    <rtept lat="52.97319" lon="5.45434"/>
    <rtept lat="52.97325" lon="5.45424"/>
    <rtept lat="52.97338" lon="5.45401"/>
    <rtept lat="52.97369" lon="5.45343"/>
    <rtept lat="52.97369" lon="5.45343"/>
    <rtept lat="52.97414" lon="5.45264"/>
    <rtept lat="52.97422" lon="5.45247"/>
    <rtept lat="52.97425" lon="5.4524"/>
    <rtept lat="52.97427" lon="5.45232"/>
    <rtept lat="52.9743" lon="5.45223"/>
    <rtept lat="52.97433" lon="5.45204"/>
    <rtept lat="52.97437" lon="5.45191"/>
    <rtept lat="52.9744" lon="5.45182"/>
    <rtept lat="52.97445" lon="5.45173"/>
    <rtept lat="52.97459" lon="5.45155"/>
    <rtept lat="52.97494" lon="5.45107"/>
    <rtept lat="52.97494" lon="5.45107"/>
    <rtept lat="52.97505" lon="5.45093"/>
    <rtept lat="52.97521" lon="5.45071"/>
    <rtept lat="52.97525" lon="5.45066"/>
    <rtept lat="52.97553" lon="5.45016"/>
    <rtept lat="52.97557" lon="5.4501"/>
    <rtept lat="52.97565" lon="5.44996"/>
    <rtept lat="52.97597" lon="5.44939"/>
    <rtept lat="52.97607" lon="5.44921"/>
    <rtept lat="52.97607" lon="5.44921"/>
    <rtept lat="52.97578" lon="5.44871"/>
    <rtept lat="52.97575" lon="5.44809"/>
    <rtept lat="52.97555" lon="5.44776"/>
    <rtept lat="52.97526" lon="5.44726"/>
    <rtept lat="52.97526" lon="5.44726"/>
    <rtept lat="52.97531" lon="5.44718"/>
    <rtept lat="52.97554" lon="5.44683"/>
    <rtept lat="52.97565" lon="5.44665"/>
    <rtept lat="52.97569" lon="5.44659"/>
    <rtept lat="52.97571" lon="5.44656"/>
    <rtept lat="52.97576" lon="5.44648"/>
    <rtept lat="52.97606" lon="5.44601"/>
    <rtept lat="52.97606" lon="5.44601"/>
    <rtept lat="52.97569" lon="5.44535"/>
    <rtept lat="52.97569" lon="5.44535"/>
    <rtept lat="52.97588" lon="5.44506"/>
    <rtept lat="52.97603" lon="5.44484"/>
    <rtept lat="52.97608" lon="5.44477"/>
    <rtept lat="52.97608" lon="5.44477"/>
    <rtept lat="52.97594" lon="5.44451"/>
    <rtept lat="52.97573" lon="5.44415"/>
    <rtept lat="52.97556" lon="5.44384"/>
    <rtept lat="52.97519" lon="5.4432"/>
    <rtept lat="52.975" lon="5.44286"/>
    <rtept lat="52.97486" lon="5.4426"/>
    <rtept lat="52.97458" lon="5.44211"/>
    <rtept lat="52.97431" lon="5.44162"/>
    <rtept lat="52.9741" lon="5.44126"/>
    <rtept lat="52.9741" lon="5.44126"/>
    <rtept lat="52.97356" lon="5.44031"/>
    <rtept lat="52.97354" lon="5.44027"/>
    <rtept lat="52.97341" lon="5.44003"/>
    <rtept lat="52.9732" lon="5.43966"/>
    <rtept lat="52.9731" lon="5.43946"/>
    <rtept lat="52.973" lon="5.43924"/>
    <rtept lat="52.973" lon="5.43924"/>
    <rtept lat="52.97291" lon="5.43898"/>
    <rtept lat="52.97256" lon="5.43776"/>
    <rtept lat="52.97202" lon="5.43597"/>
    <rtept lat="52.97199" lon="5.43584"/>
    <rtept lat="52.97192" lon="5.43556"/>
    <rtept lat="52.97185" lon="5.43514"/>
    <rtept lat="52.97183" lon="5.43499"/>
    <rtept lat="52.97179" lon="5.43468"/>
    <rtept lat="52.97179" lon="5.43468"/>
    <rtept lat="52.97206" lon="5.43457"/>
    <rtept lat="52.97211" lon="5.43454"/>
    <rtept lat="52.97217" lon="5.43452"/>
    <rtept lat="52.97222" lon="5.43448"/>
    <rtept lat="52.97225" lon="5.43444"/>
    <rtept lat="52.97229" lon="5.43434"/>
    <rtept lat="52.97235" lon="5.43423"/>
    <rtept lat="52.97235" lon="5.43423"/>
    <rtept lat="52.97237" lon="5.43413"/>
    <rtept lat="52.97247" lon="5.43386"/>
    <rtept lat="52.97251" lon="5.43374"/>
    <rtept lat="52.97255" lon="5.43366"/>
    <rtept lat="52.97255" lon="5.43366"/>
    <rtept lat="52.97258" lon="5.43364"/>
    <rtept lat="52.9726" lon="5.4336"/>
    <rtept lat="52.9727" lon="5.43336"/>
    <rtept lat="52.97279" lon="5.43312"/>
    <rtept lat="52.97296" lon="5.43251"/>
    <rtept lat="52.97296" lon="5.43251"/>
    <rtept lat="52.97302" lon="5.43245"/>
    <rtept lat="52.97306" lon="5.43238"/>
    <rtept lat="52.97308" lon="5.43231"/>
    <rtept lat="52.9731" lon="5.43224"/>
    <rtept lat="52.97315" lon="5.4321"/>
    <rtept lat="52.9732" lon="5.43201"/>
    <rtept lat="52.97325" lon="5.43193"/>
    <rtept lat="52.9733" lon="5.43186"/>
    <rtept lat="52.97335" lon="5.43181"/>
    <rtept lat="52.97338" lon="5.43178"/>
    <rtept lat="52.97349" lon="5.43172"/>
    <rtept lat="52.97349" lon="5.43172"/>
    <rtept lat="52.97359" lon="5.43163"/>
    <rtept lat="52.97367" lon="5.43159"/>
    <rtept lat="52.97389" lon="5.43151"/>
    <rtept lat="52.97429" lon="5.43139"/>
    <rtept lat="52.97463" lon="5.43131"/>
    <rtept lat="52.97507" lon="5.43126"/>
    <rtept lat="52.97543" lon="5.43118"/>
    <rtept lat="52.97578" lon="5.43104"/>
    <rtept lat="52.97624" lon="5.43083"/>
    <rtept lat="52.97655" lon="5.43075"/>
    <rtept lat="52.97689" lon="5.43071"/>
    <rtept lat="52.97727" lon="5.43069"/>
    <rtept lat="52.97754" lon="5.43069"/>
    <rtept lat="52.9777" lon="5.4307"/>
    <rtept lat="52.9785" lon="5.43091"/>
    <rtept lat="52.97914" lon="5.43113"/>
    <rtept lat="52.97976" lon="5.43139"/>
    <rtept lat="52.98053" lon="5.43176"/>
    <rtept lat="52.98128" lon="5.43214"/>
    <rtept lat="52.98158" lon="5.43229"/>
    <rtept lat="52.98181" lon="5.43245"/>
    <rtept lat="52.98201" lon="5.43261"/>
    <rtept lat="52.98246" lon="5.43302"/>
    <rtept lat="52.98266" lon="5.43317"/>
    <rtept lat="52.98286" lon="5.43329"/>
    <rtept lat="52.98311" lon="5.43338"/>
    <rtept lat="52.98323" lon="5.43339"/>
    <rtept lat="52.98337" lon="5.43337"/>
    <rtept lat="52.98351" lon="5.43335"/>
    <rtept lat="52.98361" lon="5.43333"/>
    <rtept lat="52.98372" lon="5.43334"/>
    <rtept lat="52.98392" lon="5.43344"/>
    <rtept lat="52.98428" lon="5.43364"/>
    <rtept lat="52.98428" lon="5.43364"/>
    <rtept lat="52.98435" lon="5.43371"/>
    <rtept lat="52.98443" lon="5.43377"/>
    <rtept lat="52.98458" lon="5.43386"/>
    <rtept lat="52.98467" lon="5.43391"/>
    <rtept lat="52.98471" lon="5.43393"/>
    <rtept lat="52.98476" lon="5.43394"/>
    <rtept lat="52.98484" lon="5.43395"/>
    <rtept lat="52.98492" lon="5.43395"/>
    <rtept lat="52.98498" lon="5.43394"/>
    <rtept lat="52.98504" lon="5.43391"/>
    <rtept lat="52.9851" lon="5.43388"/>
    <rtept lat="52.98513" lon="5.43386"/>
    <rtept lat="52.98517" lon="5.43382"/>
    <rtept lat="52.98549" lon="5.43353"/>
    <rtept lat="52.98549" lon="5.43353"/>
    <rtept lat="52.98563" lon="5.43342"/>
    <rtept lat="52.98586" lon="5.43328"/>
    <rtept lat="52.98636" lon="5.433"/>
    <rtept lat="52.98659" lon="5.43286"/>
    <rtept lat="52.98674" lon="5.43275"/>
    <rtept lat="52.98685" lon="5.43265"/>
    <rtept lat="52.98729" lon="5.43223"/>
    <rtept lat="52.98748" lon="5.43202"/>
    <rtept lat="52.98769" lon="5.43181"/>
    <rtept lat="52.98782" lon="5.43169"/>
    <rtept lat="52.98794" lon="5.43158"/>
    <rtept lat="52.98812" lon="5.43143"/>
    <rtept lat="52.98823" lon="5.43133"/>
    <rtept lat="52.9883" lon="5.43126"/>
    <rtept lat="52.98835" lon="5.4312"/>
    <rtept lat="52.98923" lon="5.42996"/>
    <rtept lat="52.98923" lon="5.42996"/>
    <rtept lat="52.98933" lon="5.42985"/>
    <rtept lat="52.98941" lon="5.42976"/>
    <rtept lat="52.98985" lon="5.4293"/>
    <rtept lat="52.99001" lon="5.42915"/>
    <rtept lat="52.99008" lon="5.42908"/>
    <rtept lat="52.99013" lon="5.42904"/>
    <rtept lat="52.99019" lon="5.42899"/>
    <rtept lat="52.99024" lon="5.42896"/>
    <rtept lat="52.99035" lon="5.42891"/>
    <rtept lat="52.99049" lon="5.42886"/>
    <rtept lat="52.99065" lon="5.42882"/>
    <rtept lat="52.99098" lon="5.42875"/>
    <rtept lat="52.99115" lon="5.4287"/>
    <rtept lat="52.99122" lon="5.42867"/>
    <rtept lat="52.9913" lon="5.42863"/>
    <rtept lat="52.99136" lon="5.4286"/>
    <rtept lat="52.99142" lon="5.42856"/>
    <rtept lat="52.99154" lon="5.42848"/>
    <rtept lat="52.99166" lon="5.42839"/>
    <rtept lat="52.99177" lon="5.4283"/>
    <rtept lat="52.99201" lon="5.42811"/>
    <rtept lat="52.99232" lon="5.42785"/>
    <rtept lat="52.99259" lon="5.42762"/>
    <rtept lat="52.99272" lon="5.4275"/>
    <rtept lat="52.99286" lon="5.42737"/>
    <rtept lat="52.99313" lon="5.42708"/>
    <rtept lat="52.99321" lon="5.427"/>
    <rtept lat="52.99332" lon="5.42695"/>
    <rtept lat="52.99342" lon="5.42691"/>
    <rtept lat="52.99353" lon="5.42689"/>
    <rtept lat="52.994" lon="5.42684"/>
    <rtept lat="52.99413" lon="5.42683"/>
    <rtept lat="52.99426" lon="5.42681"/>
    <rtept lat="52.99433" lon="5.42679"/>
    <rtept lat="52.99477" lon="5.42667"/>
    <rtept lat="52.99522" lon="5.42654"/>
    <rtept lat="52.99564" lon="5.42642"/>
    <rtept lat="52.99605" lon="5.42631"/>
    <rtept lat="52.99618" lon="5.42629"/>
    <rtept lat="52.99634" lon="5.42627"/>
    <rtept lat="52.99647" lon="5.42626"/>
    <rtept lat="52.99656" lon="5.42625"/>
    <rtept lat="52.99664" lon="5.42624"/>
    <rtept lat="52.99673" lon="5.42621"/>
    <rtept lat="52.99694" lon="5.42614"/>
    <rtept lat="52.99707" lon="5.42609"/>
    <rtept lat="52.99738" lon="5.42602"/>
    <rtept lat="52.99746" lon="5.42601"/>
    <rtept lat="52.99749" lon="5.426"/>
    <rtept lat="52.9976" lon="5.42599"/>
    <rtept lat="52.99773" lon="5.42597"/>
    <rtept lat="52.99797" lon="5.42591"/>
    <rtept lat="52.99805" lon="5.42589"/>
    <rtept lat="52.99812" lon="5.42588"/>
    <rtept lat="52.99817" lon="5.42588"/>
    <rtept lat="52.99821" lon="5.42588"/>
    <rtept lat="52.99829" lon="5.4259"/>
    <rtept lat="52.99838" lon="5.42596"/>
    <rtept lat="52.9985" lon="5.42605"/>
    <rtept lat="52.99857" lon="5.4261"/>
    <rtept lat="52.99865" lon="5.42615"/>
    <rtept lat="52.99873" lon="5.42617"/>
    <rtept lat="52.99881" lon="5.42618"/>
    <rtept lat="52.99887" lon="5.42617"/>
    <rtept lat="52.99893" lon="5.42615"/>
    <rtept lat="52.9992" lon="5.42607"/>
    <rtept lat="52.99953" lon="5.42596"/>
    <rtept lat="52.99992" lon="5.42586"/>
    <rtept lat="53.00015" lon="5.42581"/>
    <rtept lat="53.00042" lon="5.42575"/>
    <rtept lat="53.00057" lon="5.42572"/>
    <rtept lat="53.00057" lon="5.42572"/>
    <rtept lat="53.00076" lon="5.42567"/>
    <rtept lat="53.00112" lon="5.42557"/>
    <rtept lat="53.00147" lon="5.42548"/>
    <rtept lat="53.00171" lon="5.42546"/>
    <rtept lat="53.00232" lon="5.42545"/>
    <rtept lat="53.0025" lon="5.42541"/>
    <rtept lat="53.00264" lon="5.42531"/>
    <rtept lat="53.00311" lon="5.42476"/>
    <rtept lat="53.00354" lon="5.42436"/>
    <rtept lat="53.00365" lon="5.42428"/>
    <rtept lat="53.00377" lon="5.42419"/>
    <rtept lat="53.00409" lon="5.42407"/>
    <rtept lat="53.00463" lon="5.42393"/>
    <rtept lat="53.0051" lon="5.42381"/>
    <rtept lat="53.00574" lon="5.4237"/>
    <rtept lat="53.00585" lon="5.42368"/>
    <rtept lat="53.00597" lon="5.42363"/>
    <rtept lat="53.00609" lon="5.42354"/>
    <rtept lat="53.00619" lon="5.42339"/>
    <rtept lat="53.0066" lon="5.42253"/>
    <rtept lat="53.00727" lon="5.42129"/>
    <rtept lat="53.00753" lon="5.42087"/>
    <rtept lat="53.0077" lon="5.42065"/>
    <rtept lat="53.00804" lon="5.42025"/>
    <rtept lat="53.00818" lon="5.42003"/>
    <rtept lat="53.0084" lon="5.4197"/>
    <rtept lat="53.00865" lon="5.4194"/>
    <rtept lat="53.00893" lon="5.41909"/>
    <rtept lat="53.0091" lon="5.4188"/>
    <rtept lat="53.00942" lon="5.41813"/>
    <rtept lat="53.00974" lon="5.41737"/>
    <rtept lat="53.01049" lon="5.41565"/>
    <rtept lat="53.01089" lon="5.41475"/>
    <rtept lat="53.01134" lon="5.41359"/>
    <rtept lat="53.01146" lon="5.41334"/>
    <rtept lat="53.01173" lon="5.4128"/>
    <rtept lat="53.01236" lon="5.41123"/>
    <rtept lat="53.01253" lon="5.4109"/>
    <rtept lat="53.01271" lon="5.41059"/>
    <rtept lat="53.01293" lon="5.41011"/>
    <rtept lat="53.01327" lon="5.4094"/>
    <rtept lat="53.01344" lon="5.40905"/>
    <rtept lat="53.01368" lon="5.40851"/>
    <rtept lat="53.01387" lon="5.40809"/>
    <rtept lat="53.01402" lon="5.40782"/>
    <rtept lat="53.01417" lon="5.40765"/>
    <rtept lat="53.01434" lon="5.40755"/>
    <rtept lat="53.0146" lon="5.40748"/>
    <rtept lat="53.0149" lon="5.40746"/>
    <rtept lat="53.01572" lon="5.40751"/>
    <rtept lat="53.01572" lon="5.40751"/>
    <rtept lat="53.01582" lon="5.40754"/>
    <rtept lat="53.01584" lon="5.40755"/>
    <rtept lat="53.01604" lon="5.40766"/>
    <rtept lat="53.01625" lon="5.40779"/>
    <rtept lat="53.01681" lon="5.40821"/>
    <rtept lat="53.01699" lon="5.40837"/>
    <rtept lat="53.01719" lon="5.40858"/>
    <rtept lat="53.01742" lon="5.40871"/>
    <rtept lat="53.01767" lon="5.40876"/>
    <rtept lat="53.01767" lon="5.40876"/>
    <rtept lat="53.0179" lon="5.40879"/>
    <rtept lat="53.01841" lon="5.40885"/>
    <rtept lat="53.01864" lon="5.40887"/>
    <rtept lat="53.01889" lon="5.40888"/>
    <rtept lat="53.01906" lon="5.40889"/>
    <rtept lat="53.01928" lon="5.40891"/>
    <rtept lat="53.01945" lon="5.40893"/>
    <rtept lat="53.01974" lon="5.40897"/>
    <rtept lat="53.01992" lon="5.409"/>
    <rtept lat="53.02" lon="5.40903"/>
    <rtept lat="53.02016" lon="5.40907"/>
    <rtept lat="53.02039" lon="5.40914"/>
    <rtept lat="53.02065" lon="5.40922"/>
    <rtept lat="53.02077" lon="5.40925"/>
    <rtept lat="53.02086" lon="5.40929"/>
    <rtept lat="53.02095" lon="5.40932"/>
    <rtept lat="53.02105" lon="5.40937"/>
    <rtept lat="53.02115" lon="5.40942"/>
    <rtept lat="53.02129" lon="5.4095"/>
    <rtept lat="53.02152" lon="5.40965"/>
    <rtept lat="53.02163" lon="5.40971"/>
    <rtept lat="53.02184" lon="5.40982"/>
    <rtept lat="53.02213" lon="5.40997"/>
    <rtept lat="53.0223" lon="5.41006"/>
    <rtept lat="53.02246" lon="5.41017"/>
    <rtept lat="53.02257" lon="5.41024"/>
    <rtept lat="53.02269" lon="5.41033"/>
    <rtept lat="53.02277" lon="5.4104"/>
    <rtept lat="53.02283" lon="5.41046"/>
    <rtept lat="53.02291" lon="5.41055"/>
    <rtept lat="53.02296" lon="5.41063"/>
    <rtept lat="53.023" lon="5.41071"/>
    <rtept lat="53.02304" lon="5.41079"/>
    <rtept lat="53.02307" lon="5.41087"/>
    <rtept lat="53.02311" lon="5.41102"/>
    <rtept lat="53.02319" lon="5.41132"/>
    <rtept lat="53.02323" lon="5.41147"/>
    <rtept lat="53.02327" lon="5.41159"/>
    <rtept lat="53.02331" lon="5.41168"/>
    <rtept lat="53.02334" lon="5.41175"/>
    <rtept lat="53.02339" lon="5.41183"/>
    <rtept lat="53.02343" lon="5.41189"/>
    <rtept lat="53.02348" lon="5.41196"/>
    <rtept lat="53.02353" lon="5.41201"/>
    <rtept lat="53.02359" lon="5.41205"/>
    <rtept lat="53.02364" lon="5.41207"/>
    <rtept lat="53.02369" lon="5.4121"/>
    <rtept lat="53.02373" lon="5.41211"/>
    <rtept lat="53.02381" lon="5.41213"/>
    <rtept lat="53.02387" lon="5.41213"/>
    <rtept lat="53.02394" lon="5.41214"/>
    <rtept lat="53.02404" lon="5.41214"/>
    <rtept lat="53.02425" lon="5.41214"/>
    <rtept lat="53.02458" lon="5.41211"/>
    <rtept lat="53.02476" lon="5.4121"/>
    <rtept lat="53.02486" lon="5.41209"/>
    <rtept lat="53.02492" lon="5.41208"/>
    <rtept lat="53.025" lon="5.41206"/>
    <rtept lat="53.02507" lon="5.41203"/>
    <rtept lat="53.02516" lon="5.412"/>
    <rtept lat="53.02523" lon="5.41197"/>
    <rtept lat="53.02529" lon="5.41194"/>
    <rtept lat="53.02573" lon="5.41168"/>
    <rtept lat="53.02605" lon="5.41148"/>
    <rtept lat="53.02628" lon="5.41136"/>
    <rtept lat="53.0264" lon="5.41129"/>
    <rtept lat="53.02667" lon="5.41115"/>
    <rtept lat="53.02694" lon="5.41102"/>
    <rtept lat="53.02719" lon="5.4109"/>
    <rtept lat="53.02746" lon="5.41077"/>
    <rtept lat="53.02764" lon="5.41068"/>
    <rtept lat="53.02775" lon="5.41062"/>
    <rtept lat="53.02786" lon="5.41056"/>
    <rtept lat="53.02822" lon="5.41033"/>
    <rtept lat="53.0284" lon="5.41022"/>
    <rtept lat="53.02855" lon="5.41014"/>
    <rtept lat="53.02868" lon="5.41007"/>
    <rtept lat="53.02923" lon="5.40982"/>
    <rtept lat="53.0295" lon="5.4097"/>
    <rtept lat="53.02971" lon="5.4096"/>
    <rtept lat="53.02983" lon="5.40954"/>
    <rtept lat="53.02989" lon="5.4095"/>
    <rtept lat="53.02999" lon="5.40945"/>
    <rtept lat="53.03022" lon="5.4093"/>
    <rtept lat="53.03047" lon="5.40914"/>
    <rtept lat="53.03054" lon="5.4091"/>
    <rtept lat="53.03061" lon="5.40906"/>
    <rtept lat="53.0307" lon="5.40902"/>
    <rtept lat="53.03078" lon="5.40898"/>
    <rtept lat="53.03087" lon="5.40894"/>
    <rtept lat="53.03095" lon="5.4089"/>
    <rtept lat="53.03115" lon="5.40882"/>
    <rtept lat="53.03123" lon="5.40878"/>
    <rtept lat="53.03134" lon="5.40873"/>
    <rtept lat="53.03201" lon="5.40838"/>
    <rtept lat="53.03252" lon="5.40811"/>
    <rtept lat="53.03278" lon="5.40797"/>
    <rtept lat="53.03278" lon="5.40797"/>
    <rtept lat="53.03333" lon="5.40773"/>
    <rtept lat="53.03385" lon="5.40758"/>
    <rtept lat="53.03404" lon="5.40749"/>
    <rtept lat="53.03416" lon="5.40737"/>
    <rtept lat="53.03435" lon="5.40721"/>
    <rtept lat="53.0347" lon="5.40699"/>
    <rtept lat="53.03657" lon="5.40604"/>
    <rtept lat="53.03728" lon="5.40569"/>
    <rtept lat="53.03767" lon="5.40551"/>
    <rtept lat="53.03809" lon="5.40532"/>
    <rtept lat="53.03822" lon="5.40522"/>
    <rtept lat="53.03874" lon="5.40474"/>
    <rtept lat="53.03907" lon="5.40441"/>
    <rtept lat="53.03928" lon="5.40425"/>
    <rtept lat="53.03951" lon="5.40415"/>
    <rtept lat="53.04006" lon="5.40416"/>
    <rtept lat="53.04073" lon="5.40432"/>
    <rtept lat="53.0427" lon="5.40504"/>
    <rtept lat="53.04353" lon="5.40538"/>
    <rtept lat="53.04421" lon="5.40574"/>
    <rtept lat="53.04427" lon="5.40577"/>
    <rtept lat="53.04434" lon="5.4058"/>
    <rtept lat="53.04448" lon="5.40583"/>
    <rtept lat="53.04468" lon="5.40587"/>
    <rtept lat="53.04468" lon="5.40587"/>
    <rtept lat="53.04502" lon="5.4059"/>
    <rtept lat="53.0457" lon="5.40584"/>
    <rtept lat="53.04754" lon="5.4056"/>
    <rtept lat="53.04831" lon="5.40546"/>
    <rtept lat="53.04953" lon="5.40515"/>
    <rtept lat="53.05017" lon="5.40499"/>
    <rtept lat="53.05027" lon="5.40496"/>
    <rtept lat="53.05027" lon="5.40496"/>
    <rtept lat="53.05028" lon="5.4049"/>
    <rtept lat="53.05031" lon="5.40485"/>
    <rtept lat="53.05037" lon="5.40474"/>
    <rtept lat="53.0504" lon="5.40469"/>
    <rtept lat="53.05042" lon="5.40464"/>
    <rtept lat="53.05046" lon="5.40454"/>
    <rtept lat="53.05047" lon="5.40449"/>
    <rtept lat="53.05049" lon="5.40444"/>
    <rtept lat="53.05058" lon="5.4043"/>
    <rtept lat="53.05066" lon="5.40417"/>
    <rtept lat="53.05066" lon="5.40417"/>
    <rtept lat="53.05061" lon="5.40408"/>
    <rtept lat="53.04993" lon="5.40284"/>
    <rtept lat="53.04933" lon="5.40172"/>
    <rtept lat="53.04926" lon="5.40159"/>
    <rtept lat="53.04922" lon="5.40148"/>
    <rtept lat="53.04917" lon="5.40137"/>
    <rtept lat="53.04912" lon="5.40122"/>
    <rtept lat="53.04907" lon="5.40103"/>
    <rtept lat="53.04904" lon="5.40085"/>
    <rtept lat="53.04902" lon="5.40072"/>
    <rtept lat="53.049" lon="5.40057"/>
    <rtept lat="53.04897" lon="5.40004"/>
    <rtept lat="53.04892" lon="5.39948"/>
    <rtept lat="53.0489" lon="5.39891"/>
    <rtept lat="53.04889" lon="5.39848"/>
    <rtept lat="53.04891" lon="5.39683"/>
    <rtept lat="53.04892" lon="5.39653"/>
    <rtept lat="53.04895" lon="5.39582"/>
    <rtept lat="53.04896" lon="5.3954"/>
    <rtept lat="53.04895" lon="5.39476"/>
    <rtept lat="53.04895" lon="5.39409"/>
    <rtept lat="53.04896" lon="5.39401"/>
    <rtept lat="53.04898" lon="5.39394"/>
    <rtept lat="53.04898" lon="5.3939"/>
    <rtept lat="53.04899" lon="5.39384"/>
    <rtept lat="53.04898" lon="5.39379"/>
    <rtept lat="53.04897" lon="5.3937"/>
    <rtept lat="53.04896" lon="5.39362"/>
    <rtept lat="53.04896" lon="5.39351"/>
    <rtept lat="53.04896" lon="5.39309"/>
    <rtept lat="53.04898" lon="5.39291"/>
    <rtept lat="53.04899" lon="5.39274"/>
    <rtept lat="53.049" lon="5.39264"/>
    <rtept lat="53.04901" lon="5.39238"/>
    <rtept lat="53.04901" lon="5.39228"/>
    <rtept lat="53.04899" lon="5.39223"/>
    <rtept lat="53.04897" lon="5.39214"/>
    <rtept lat="53.04897" lon="5.39207"/>
    <rtept lat="53.04897" lon="5.39192"/>
    <rtept lat="53.04898" lon="5.39159"/>
    <rtept lat="53.04901" lon="5.39089"/>
    <rtept lat="53.04903" lon="5.39064"/>
    <rtept lat="53.04905" lon="5.39047"/>
    <rtept lat="53.04907" lon="5.39032"/>
    <rtept lat="53.04911" lon="5.39014"/>
    <rtept lat="53.04916" lon="5.38998"/>
    <rtept lat="53.04918" lon="5.3899"/>
    <rtept lat="53.04918" lon="5.3899"/>
    <rtept lat="53.04909" lon="5.38981"/>
    <rtept lat="53.04904" lon="5.38975"/>
    <rtept lat="53.04908" lon="5.38961"/>
    <rtept lat="53.04907" lon="5.38947"/>
    <rtept lat="53.04907" lon="5.38931"/>
    <rtept lat="53.04907" lon="5.38916"/>
    <rtept lat="53.04901" lon="5.3891"/>
    <rtept lat="53.04893" lon="5.38905"/>
    <rtept lat="53.04883" lon="5.38903"/>
    <rtept lat="53.04867" lon="5.38901"/>
    <rtept lat="53.04867" lon="5.38901"/>
    <rtept lat="53.04849" lon="5.38901"/>
    <rtept lat="53.04842" lon="5.38901"/>
    <rtept lat="53.04836" lon="5.389"/>
    <rtept lat="53.04827" lon="5.38896"/>
    <rtept lat="53.04822" lon="5.3889"/>
    <rtept lat="53.04815" lon="5.38879"/>
    <rtept lat="53.04809" lon="5.38858"/>
    <rtept lat="53.04808" lon="5.38854"/>
    <rtept lat="53.04808" lon="5.38851"/>
    <rtept lat="53.04789" lon="5.38786"/>
    <rtept lat="53.04789" lon="5.38784"/>
    <rtept lat="53.04783" lon="5.38762"/>
    <rtept lat="53.04777" lon="5.38739"/>
    <rtept lat="53.04763" lon="5.38684"/>
    <rtept lat="53.04755" lon="5.38657"/>
    <rtept lat="53.0475" lon="5.38637"/>
    <rtept lat="53.04745" lon="5.38616"/>
    <rtept lat="53.04744" lon="5.38614"/>
    <rtept lat="53.0473" lon="5.38563"/>
    <rtept lat="53.04725" lon="5.38547"/>
    <rtept lat="53.04725" lon="5.38547"/>
    <rtept lat="53.04677" lon="5.3837"/>
    <rtept lat="53.04658" lon="5.38298"/>
    <rtept lat="53.04652" lon="5.38278"/>
    <rtept lat="53.04639" lon="5.38232"/>
    <rtept lat="53.04639" lon="5.38232"/>
    <rtept lat="53.04628" lon="5.38238"/>
    <rtept lat="53.04616" lon="5.3824"/>
    <rtept lat="53.04606" lon="5.38242"/>
    <rtept lat="53.04598" lon="5.38241"/>
    <rtept lat="53.0459" lon="5.38244"/>
    <rtept lat="53.0459" lon="5.38244"/>
    <rtept lat="53.04583" lon="5.3821"/>
  </rte>
</gpx>
