<?xml version="1.0" encoding="utf-8" standalone="no"?>
<gpx version="1.1" creator="NodeMapp" xmlns:xsi="http://www.w3.org/2001/XMLSchema-instance" xsi:schemaLocation="http://www.topografix.com/GPX/1/1 http://www.topografix.com/GPX/1/1/gpx.xsd" xmlns="http://www.topografix.com/GPX/1/1">
  <metadata>
    <author>
      <name>NodeMapp Bike</name>
    </author>
  </metadata>
  <trk>
    <name>Palingroute</name>
    <trkseg>
      <trkpt lat="53.04583" lon="5.3821" />
      <trkpt lat="53.0459" lon="5.38244" />
      <trkpt lat="53.04639" lon="5.38232" />
      <trkpt lat="53.04815" lon="5.38879" />
      <trkpt lat="53.04836" lon="5.389" />
      <trkpt lat="53.04893" lon="5.38905" />
      <trkpt lat="53.04907" lon="5.38916" />
      <trkpt lat="53.04904" lon="5.38975" />
      <trkpt lat="53.04918" lon="5.3899" />
      <trkpt lat="53.04903" lon="5.39064" />
      <trkpt lat="53.04897" lon="5.39192" />
      <trkpt lat="53.04889" lon="5.39848" />
      <trkpt lat="53.049" lon="5.40057" />
      <trkpt lat="53.04926" lon="5.40159" />
      <trkpt lat="53.05066" lon="5.40417" />
      <trkpt lat="53.05027" lon="5.40496" />
      <trkpt lat="53.04831" lon="5.40546" />
      <trkpt lat="53.0457" lon="5.40584" />
      <trkpt lat="53.04468" lon="5.40587" />
      <trkpt lat="53.04434" lon="5.4058" />
      <trkpt lat="53.04353" lon="5.40538" />
      <trkpt lat="53.04073" lon="5.40432" />
      <trkpt lat="53.04006" lon="5.40416" />
      <trkpt lat="53.03951" lon="5.40415" />
      <trkpt lat="53.03907" lon="5.40441" />
      <trkpt lat="53.03809" lon="5.40532" />
      <trkpt lat="53.0347" lon="5.40699" />
      <trkpt lat="53.03404" lon="5.40749" />
      <trkpt lat="53.03278" lon="5.40797" />
      <trkpt lat="53.03095" lon="5.4089" />
      <trkpt lat="53.02529" lon="5.41194" />
      <trkpt lat="53.02486" lon="5.41209" />
      <trkpt lat="53.02394" lon="5.41214" />
      <trkpt lat="53.02353" lon="5.41201" />
      <trkpt lat="53.02334" lon="5.41175" />
      <trkpt lat="53.02304" lon="5.41079" />
      <trkpt lat="53.02283" lon="5.41046" />
      <trkpt lat="53.0223" lon="5.41006" />
      <trkpt lat="53.02095" lon="5.40932" />
      <trkpt lat="53.01992" lon="5.409" />
      <trkpt lat="53.01742" lon="5.40871" />
      <trkpt lat="53.01681" lon="5.40821" />
      <trkpt lat="53.01646" lon="5.40859" />
      <trkpt lat="53.01625" lon="5.40853" />
      <trkpt lat="53.01593" lon="5.40827" />
      <trkpt lat="53.01584" lon="5.40825" />
      <trkpt lat="53.01573" lon="5.40836" />
      <trkpt lat="53.01531" lon="5.40926" />
      <trkpt lat="53.01519" lon="5.41021" />
      <trkpt lat="53.01494" lon="5.41057" />
      <trkpt lat="53.01421" lon="5.41182" />
      <trkpt lat="53.01334" lon="5.41394" />
      <trkpt lat="53.01293" lon="5.41344" />
      <trkpt lat="53.01279" lon="5.41341" />
      <trkpt lat="53.01268" lon="5.41352" />
      <trkpt lat="53.01029" lon="5.41926" />
      <trkpt lat="53.01018" lon="5.41928" />
      <trkpt lat="53.01003" lon="5.41869" />
      <trkpt lat="53.00992" lon="5.41868" />
      <trkpt lat="53.00975" lon="5.41881" />
      <trkpt lat="53.00906" lon="5.42025" />
      <trkpt lat="53.0083" lon="5.42148" />
      <trkpt lat="53.00805" lon="5.42155" />
      <trkpt lat="53.00775" lon="5.42205" />
      <trkpt lat="53.00754" lon="5.42214" />
      <trkpt lat="53.00707" lon="5.42313" />
      <trkpt lat="53.00658" lon="5.42396" />
      <trkpt lat="53.00643" lon="5.42404" />
      <trkpt lat="53.00617" lon="5.42463" />
      <trkpt lat="53.00597" lon="5.4248" />
      <trkpt lat="53.00609" lon="5.42561" />
      <trkpt lat="53.00591" lon="5.42672" />
      <trkpt lat="53.00582" lon="5.42877" />
      <trkpt lat="53.00575" lon="5.4289" />
      <trkpt lat="53.00542" lon="5.42911" />
      <trkpt lat="53.00543" lon="5.4303" />
      <trkpt lat="53.00564" lon="5.4305" />
      <trkpt lat="53.00547" lon="5.43093" />
      <trkpt lat="53.00538" lon="5.43086" />
      <trkpt lat="53.00507" lon="5.43073" />
      <trkpt lat="53.00414" lon="5.43079" />
      <trkpt lat="53.00328" lon="5.43126" />
      <trkpt lat="53.00234" lon="5.43161" />
      <trkpt lat="53.002" lon="5.4316" />
      <trkpt lat="53.00051" lon="5.43121" />
      <trkpt lat="53.00018" lon="5.43128" />
      <trkpt lat="52.99998" lon="5.43139" />
      <trkpt lat="52.99842" lon="5.43338" />
      <trkpt lat="52.99689" lon="5.43459" />
      <trkpt lat="52.9965" lon="5.43476" />
      <trkpt lat="52.99605" lon="5.4348" />
      <trkpt lat="52.99553" lon="5.43467" />
      <trkpt lat="52.99461" lon="5.43397" />
      <trkpt lat="52.99427" lon="5.43383" />
      <trkpt lat="52.99198" lon="5.43386" />
      <trkpt lat="52.99173" lon="5.43394" />
      <trkpt lat="52.99141" lon="5.4343" />
      <trkpt lat="52.98936" lon="5.4385" />
      <trkpt lat="52.98889" lon="5.43933" />
      <trkpt lat="52.98805" lon="5.44125" />
      <trkpt lat="52.98732" lon="5.44269" />
      <trkpt lat="52.98692" lon="5.44308" />
      <trkpt lat="52.98571" lon="5.44346" />
      <trkpt lat="52.98546" lon="5.44359" />
      <trkpt lat="52.98522" lon="5.44384" />
      <trkpt lat="52.98309" lon="5.44783" />
      <trkpt lat="52.98453" lon="5.44972" />
      <trkpt lat="52.98475" lon="5.45032" />
      <trkpt lat="52.9848" lon="5.45142" />
      <trkpt lat="52.98469" lon="5.45194" />
      <trkpt lat="52.98422" lon="5.45315" />
      <trkpt lat="52.98383" lon="5.45451" />
      <trkpt lat="52.98281" lon="5.4567" />
      <trkpt lat="52.98206" lon="5.45807" />
      <trkpt lat="52.98211" lon="5.45823" />
      <trkpt lat="52.9818" lon="5.45972" />
      <trkpt lat="52.98185" lon="5.46035" />
      <trkpt lat="52.98145" lon="5.46125" />
      <trkpt lat="52.98097" lon="5.46153" />
      <trkpt lat="52.98045" lon="5.46242" />
      <trkpt lat="52.98033" lon="5.46236" />
      <trkpt lat="52.9801" lon="5.463" />
      <trkpt lat="52.98003" lon="5.46349" />
      <trkpt lat="52.9801" lon="5.46459" />
      <trkpt lat="52.98031" lon="5.46519" />
      <trkpt lat="52.98108" lon="5.46638" />
      <trkpt lat="52.98149" lon="5.46739" />
      <trkpt lat="52.98182" lon="5.46793" />
      <trkpt lat="52.98287" lon="5.46897" />
      <trkpt lat="52.98378" lon="5.4695" />
      <trkpt lat="52.9833" lon="5.47242" />
      <trkpt lat="52.98116" lon="5.48248" />
      <trkpt lat="52.98098" lon="5.48292" />
      <trkpt lat="52.98056" lon="5.48344" />
      <trkpt lat="52.9803" lon="5.48418" />
      <trkpt lat="52.98007" lon="5.48511" />
      <trkpt lat="52.98036" lon="5.48528" />
      <trkpt lat="52.98024" lon="5.48626" />
      <trkpt lat="52.97838" lon="5.49428" />
      <trkpt lat="52.97767" lon="5.49461" />
      <trkpt lat="52.97759" lon="5.49535" />
      <trkpt lat="52.97772" lon="5.49544" />
      <trkpt lat="52.97771" lon="5.49558" />
      <trkpt lat="52.97686" lon="5.49659" />
      <trkpt lat="52.97675" lon="5.4972" />
      <trkpt lat="52.97679" lon="5.4973" />
      <trkpt lat="52.9772" lon="5.49757" />
      <trkpt lat="52.97723" lon="5.49774" />
      <trkpt lat="52.97435" lon="5.51041" />
      <trkpt lat="52.97412" lon="5.51287" />
      <trkpt lat="52.97211" lon="5.52228" />
      <trkpt lat="52.97205" lon="5.52337" />
      <trkpt lat="52.97218" lon="5.52502" />
      <trkpt lat="52.97207" lon="5.5262" />
      <trkpt lat="52.97023" lon="5.53449" />
      <trkpt lat="52.97004" lon="5.53675" />
      <trkpt lat="52.96944" lon="5.53917" />
      <trkpt lat="52.96941" lon="5.53957" />
      <trkpt lat="52.96926" lon="5.53953" />
      <trkpt lat="52.96905" lon="5.53989" />
      <trkpt lat="52.96861" lon="5.54197" />
      <trkpt lat="52.96768" lon="5.54568" />
      <trkpt lat="52.96739" lon="5.54588" />
      <trkpt lat="52.96694" lon="5.54582" />
      <trkpt lat="52.96649" lon="5.54563" />
      <trkpt lat="52.96594" lon="5.54525" />
      <trkpt lat="52.96536" lon="5.54452" />
      <trkpt lat="52.96365" lon="5.543" />
      <trkpt lat="52.96339" lon="5.54331" />
      <trkpt lat="52.96311" lon="5.54397" />
      <trkpt lat="52.96339" lon="5.54331" />
      <trkpt lat="52.96365" lon="5.543" />
      <trkpt lat="52.96315" lon="5.54223" />
      <trkpt lat="52.96264" lon="5.5418" />
      <trkpt lat="52.96126" lon="5.54072" />
      <trkpt lat="52.96039" lon="5.54005" />
      <trkpt lat="52.96038" lon="5.53945" />
      <trkpt lat="52.95973" lon="5.53828" />
      <trkpt lat="52.9591" lon="5.53762" />
      <trkpt lat="52.95871" lon="5.53735" />
      <trkpt lat="52.95847" lon="5.53685" />
      <trkpt lat="52.95821" lon="5.53679" />
      <trkpt lat="52.95794" lon="5.53645" />
      <trkpt lat="52.95752" lon="5.53622" />
      <trkpt lat="52.95683" lon="5.53565" />
      <trkpt lat="52.95754" lon="5.53354" />
      <trkpt lat="52.95757" lon="5.53311" />
      <trkpt lat="52.95744" lon="5.53269" />
      <trkpt lat="52.95593" lon="5.53134" />
      <trkpt lat="52.95517" lon="5.53055" />
      <trkpt lat="52.95491" lon="5.53053" />
      <trkpt lat="52.95439" lon="5.53071" />
      <trkpt lat="52.95416" lon="5.53061" />
      <trkpt lat="52.9529" lon="5.52919" />
      <trkpt lat="52.95252" lon="5.52823" />
      <trkpt lat="52.95212" lon="5.52662" />
      <trkpt lat="52.94766" lon="5.51968" />
      <trkpt lat="52.94749" lon="5.51923" />
      <trkpt lat="52.94741" lon="5.5183" />
      <trkpt lat="52.9473" lon="5.51789" />
      <trkpt lat="52.9466" lon="5.51658" />
      <trkpt lat="52.94643" lon="5.51615" />
      <trkpt lat="52.94626" lon="5.51534" />
      <trkpt lat="52.94628" lon="5.5146" />
      <trkpt lat="52.9478" lon="5.51142" />
      <trkpt lat="52.9483" lon="5.50969" />
      <trkpt lat="52.95171" lon="5.50408" />
      <trkpt lat="52.95187" lon="5.50365" />
      <trkpt lat="52.95201" lon="5.50269" />
      <trkpt lat="52.95222" lon="5.50217" />
      <trkpt lat="52.95246" lon="5.50244" />
      <trkpt lat="52.95392" lon="5.50025" />
      <trkpt lat="52.95497" lon="5.4981" />
      <trkpt lat="52.9552" lon="5.49725" />
      <trkpt lat="52.95567" lon="5.49657" />
      <trkpt lat="52.95631" lon="5.49589" />
      <trkpt lat="52.95703" lon="5.49478" />
      <trkpt lat="52.95744" lon="5.49442" />
      <trkpt lat="52.95819" lon="5.49359" />
      <trkpt lat="52.9592" lon="5.49202" />
      <trkpt lat="52.95996" lon="5.49129" />
      <trkpt lat="52.96106" lon="5.48973" />
      <trkpt lat="52.96155" lon="5.48925" />
      <trkpt lat="52.96272" lon="5.48776" />
      <trkpt lat="52.96291" lon="5.48726" />
      <trkpt lat="52.96398" lon="5.48588" />
      <trkpt lat="52.96528" lon="5.48366" />
      <trkpt lat="52.96726" lon="5.48129" />
      <trkpt lat="52.96754" lon="5.48082" />
      <trkpt lat="52.96809" lon="5.47949" />
      <trkpt lat="52.96903" lon="5.47669" />
      <trkpt lat="52.96938" lon="5.47484" />
      <trkpt lat="52.97086" lon="5.46947" />
      <trkpt lat="52.97172" lon="5.46636" />
      <trkpt lat="52.97222" lon="5.46489" />
      <trkpt lat="52.97246" lon="5.46455" />
      <trkpt lat="52.97346" lon="5.46357" />
      <trkpt lat="52.9737" lon="5.46343" />
      <trkpt lat="52.97406" lon="5.46336" />
      <trkpt lat="52.97445" lon="5.46305" />
      <trkpt lat="52.97568" lon="5.46087" />
      <trkpt lat="52.97294" lon="5.4573" />
      <trkpt lat="52.97221" lon="5.45628" />
      <trkpt lat="52.97218" lon="5.45606" />
      <trkpt lat="52.97276" lon="5.45494" />
      <trkpt lat="52.97319" lon="5.45434" />
      <trkpt lat="52.97414" lon="5.45264" />
      <trkpt lat="52.97445" lon="5.45173" />
      <trkpt lat="52.97525" lon="5.45066" />
      <trkpt lat="52.97607" lon="5.44921" />
      <trkpt lat="52.97578" lon="5.44871" />
      <trkpt lat="52.97575" lon="5.44809" />
      <trkpt lat="52.97526" lon="5.44726" />
      <trkpt lat="52.97606" lon="5.44601" />
      <trkpt lat="52.97569" lon="5.44535" />
      <trkpt lat="52.97608" lon="5.44477" />
      <trkpt lat="52.973" lon="5.43924" />
      <trkpt lat="52.97202" lon="5.43597" />
      <trkpt lat="52.97179" lon="5.43468" />
      <trkpt lat="52.97225" lon="5.43444" />
      <trkpt lat="52.97315" lon="5.4321" />
      <trkpt lat="52.9733" lon="5.43186" />
      <trkpt lat="52.97359" lon="5.43163" />
      <trkpt lat="52.97429" lon="5.43139" />
      <trkpt lat="52.97543" lon="5.43118" />
      <trkpt lat="52.97655" lon="5.43075" />
      <trkpt lat="52.9777" lon="5.4307" />
      <trkpt lat="52.9785" lon="5.43091" />
      <trkpt lat="52.97976" lon="5.43139" />
      <trkpt lat="52.98158" lon="5.43229" />
      <trkpt lat="52.98286" lon="5.43329" />
      <trkpt lat="52.98323" lon="5.43339" />
      <trkpt lat="52.98372" lon="5.43334" />
      <trkpt lat="52.98471" lon="5.43393" />
      <trkpt lat="52.98498" lon="5.43394" />
      <trkpt lat="52.98563" lon="5.43342" />
      <trkpt lat="52.98685" lon="5.43265" />
      <trkpt lat="52.9883" lon="5.43126" />
      <trkpt lat="52.98923" lon="5.42996" />
      <trkpt lat="52.99019" lon="5.42899" />
      <trkpt lat="52.99136" lon="5.4286" />
      <trkpt lat="52.99259" lon="5.42762" />
      <trkpt lat="52.99321" lon="5.427" />
      <trkpt lat="52.99522" lon="5.42654" />
      <trkpt lat="52.99805" lon="5.42589" />
      <trkpt lat="52.99829" lon="5.4259" />
      <trkpt lat="52.99881" lon="5.42618" />
      <trkpt lat="53.00147" lon="5.42548" />
      <trkpt lat="53.0025" lon="5.42541" />
      <trkpt lat="53.00377" lon="5.42419" />
      <trkpt lat="53.0051" lon="5.42381" />
      <trkpt lat="53.00585" lon="5.42368" />
      <trkpt lat="53.00609" lon="5.42354" />
      <trkpt lat="53.00753" lon="5.42087" />
      <trkpt lat="53.0091" lon="5.4188" />
      <trkpt lat="53.01089" lon="5.41475" />
      <trkpt lat="53.01236" lon="5.41123" />
      <trkpt lat="53.01387" lon="5.40809" />
      <trkpt lat="53.01417" lon="5.40765" />
      <trkpt lat="53.0146" lon="5.40748" />
      <trkpt lat="53.01582" lon="5.40754" />
      <trkpt lat="53.01625" lon="5.40779" />
      <trkpt lat="53.01742" lon="5.40871" />
      <trkpt lat="53.01992" lon="5.409" />
      <trkpt lat="53.02115" lon="5.40942" />
      <trkpt lat="53.0223" lon="5.41006" />
      <trkpt lat="53.02283" lon="5.41046" />
      <trkpt lat="53.02304" lon="5.41079" />
      <trkpt lat="53.02334" lon="5.41175" />
      <trkpt lat="53.02369" lon="5.4121" />
      <trkpt lat="53.02425" lon="5.41214" />
      <trkpt lat="53.025" lon="5.41206" />
      <trkpt lat="53.02605" lon="5.41148" />
      <trkpt lat="53.03278" lon="5.40797" />
      <trkpt lat="53.03404" lon="5.40749" />
      <trkpt lat="53.0347" lon="5.40699" />
      <trkpt lat="53.03809" lon="5.40532" />
      <trkpt lat="53.03907" lon="5.40441" />
      <trkpt lat="53.03951" lon="5.40415" />
      <trkpt lat="53.04006" lon="5.40416" />
      <trkpt lat="53.04073" lon="5.40432" />
      <trkpt lat="53.04353" lon="5.40538" />
      <trkpt lat="53.04434" lon="5.4058" />
      <trkpt lat="53.04502" lon="5.4059" />
      <trkpt lat="53.04754" lon="5.4056" />
      <trkpt lat="53.05027" lon="5.40496" />
      <trkpt lat="53.05066" lon="5.40417" />
      <trkpt lat="53.04926" lon="5.40159" />
      <trkpt lat="53.049" lon="5.40057" />
      <trkpt lat="53.04889" lon="5.39848" />
      <trkpt lat="53.04898" lon="5.39159" />
      <trkpt lat="53.04905" lon="5.39047" />
      <trkpt lat="53.04918" lon="5.3899" />
      <trkpt lat="53.04904" lon="5.38975" />
      <trkpt lat="53.04907" lon="5.38916" />
      <trkpt lat="53.04893" lon="5.38905" />
      <trkpt lat="53.04836" lon="5.389" />
      <trkpt lat="53.04815" lon="5.38879" />
      <trkpt lat="53.04639" lon="5.38232" />
      <trkpt lat="53.0459" lon="5.38244" />
      <trkpt lat="53.04583" lon="5.3821" />
    </trkseg>
  </trk>
</gpx>